Id,Name,Address,City,State,ZIP,Phone,Type
772462193126,UROLOGY OF GREATER ATLANTA LLC,550 PEACHTREE ST NE,ATLANA,GA,30308-2243,770-474-5281,
622263573475,GRADY MEMORIAL HOSPITAL,80 JESSE HILL  JR DRIVE SE,ATLANTA,GA,30303,4046164252,Acute Care Hospitals
800481504791,EMORY UNIVERSITY HOSPITAL MIDTOWN,550 PEACHTREE STREET   NE,ATLANTA,GA,30308,4046864411,Acute Care Hospitals
104507901941,AU MEDICAL CENTER,1120 15TH STREET,AUGUSTA,GA,30912,7067216569,Acute Care Hospitals
163863794660,URGENT MD HEALTHCARE SERVICES  P.C.,1115 GARREDD BLVD,AUGUSTA,GA,30909-6674,706-922-6300,
281265946657,NORTH FULTON EAR NOSE AND THROAT ASSOCIATES  P.C.,2500 HOSPITAL BLVD,ROSWELL,GA,30076-4919,770-343-8675,
686926368490,WELLSTAR NORTH FULTON HOSPITAL,3000 HOSPITAL BOULEVARD,ROSWELL,GA,30076,7707512500,Acute Care Hospitals
941268119078,CHATTANOOGA HAMILTON COUNTY HOSPITAL AUTHORITY,101 MCFARLAND RD,LOOKOUT MOUNTAIN,GA,30750-3122,706-820-8133,
525091699956,CORNERSTONE MEDICAL CENTER,100 GROSS CRESCENT CIRCLE,FORT OGLETHORP,GA,30742,7068582000,Acute Care Hospitals
896539674674,PIZZA CLINIC OF CHIROPRACTIC,3284 DOGWOOD DR,HAPEVILLE,GA,30354-1158,404-761-6200,
333718820534,EMORY UNIVERSITY HOSPITAL,1364 CLIFTON ROAD  NE,ATLANTA,GA,30322,4046868500,Acute Care Hospitals
369963677622,ATLANTA VISION CATARACT AND LASER CENTER PC,3619 S FULTON AVE,HAPEVILLE,GA,30354-1710,404-765-2020,
716879650048,CHILDREN'S HEALTHCARE OF ATLANTA AT EGLESTON,1405 CLIFTON ROAD  NE,ATLANTA,GA,30322,4047856101,Childrens
265664410815,PIEDMONT PROVIDERS LLC,275 COLLIER NWRD,ATLANTA,GA,30309-1711,404-605-4848,
707056450633,PCP135001,1130 SENOIA RD,TYRONE,GA,30290-1641,,
903587716279,WELLSTAR ATLANTA MEDICAL CENTER,303 PARKWAY DRIVE  NE,ATLANTA,GA,30312,4042654000,Acute Care Hospitals
819724569107,PIEDMONT FAYETTE HOSPITAL,1255 HIGHWAY 54 WEST,FAYETTEVILLE,GA,30214,7707197071,Acute Care Hospitals
867391455605,CHILDREN'S HEALTHCARE OF ATLANTA AT SCOTTISH RITE,1001 JOHNSON FERRY ROAD,ATLANTA,GA,30342,4047855252,Childrens
985443798053,ATHENS BONE AND JOINT PC,528 PANTHER DR,JEFFERSON,GA,30549-5400,706-583-9000,
473335455771,NORTHRIDGE MEDICAL CENTER,70 MEDICAL CENTER DRIVE,COMMERCE,GA,30529,7063351100,Acute Care Hospitals
227959922917,ST JOSEPH'S HOSPITAL - SAVANNAH,11705 MERCY BOULEVARD,SAVANNAH,GA,31419,9128194100,Acute Care Hospitals
569616462472,MEMORIAL HEALTH UNIV MED CEN  INC,4700 WATERS AVENUE,SAVANNAH,GA,31403,9123503691,Acute Care Hospitals
990728461764,CENTER FOR DIGESTIVE AND LIVER HEALTH LLC,140 TRADERS WAY,POOLER,GA,31322-4035,912-303-4200,
784351539348,Savannah Clinic,1170 Shawnee St.,Savannah,GA,31419,912-920-0214,VA Facility
812320826443,PCP231040,1126 W 12TH ST,ALMA,GA,31510-1814,912-632-0885,
482367746648,JEFF DAVIS HOSPITAL,163 SOUTH TALLAHASSEE STREET  P O BOX 1690,HAZLEHURST,GA,31539,9123757781,Critical Access Hospitals
174875609840,SATILLA HEALTH SERVICES INCORPORATED - SATILLA CONVENIENT CARE,1921 ALICE STREET,WAYCROSS,GA,31501,912-283-5616,URGENT MEDICAL CARE CENTERS AND CLINICS (EXCEPT HOSPITALS)  FREESTANDING
904344511843,EMORY JOHNS CREEK HOSPITAL,6325 HOSPITAL PARKWAY,JOHNS CREEK,GA,30097,6784747000,Acute Care Hospitals
880156238952,PCP106070,3525 GWINNETT PLACE DR,DULUTH,GA,30096-4708,,
819467582826,PCP161742,11459 JOHNS CREEK PKWY,JOHNS CREEK,GA,30097-3518,,
374044869896,EMERGENCY PHYSICIANS INC,2000 DAN PROCTOR DR,SAINT MARYS,GA,31558-3810,912-576-6200,
118638248387,SOUTHEAST GEORGIA HEALTH SYSTEM- BRUNSWICK CAMPUS,2415 PARKWOOD DRIVE,BRUNSWICK,GA,31520,9124667000,Acute Care Hospitals
971926469513,LAVENDER INPATIENT SERVICES LLC,960 JOE FRANK HARRIS SEPKWY,CARTERSVILLE,GA,30120-2129,770-382-1530,
450291767477,CARTERSVILLE MEDICAL CENTER,960 JOE FRANK HARRIS PARKWAY,CARTERSVILLE,GA,30120,7703878182,Acute Care Hospitals
469060253308,CARTERSVILLE PEDIATRIC ASSOCIATES,970 JOE FRANK HARRIS PARKWAY,CARTERSVILLE,GA,30120,770-386-3011,URGENT MEDICAL CARE CENTERS AND CLINICS (EXCEPT HOSPITALS)  FREESTANDING
755668174280,MOUNT VERNON EYE CARE  P.C.,1611 MOUNT VERNON RD,DUNWOODY,GA,30338-4224,770-393-0003,
104430466937,WARM SPRINGS MEDICAL CENTER,5995 SPRING STREET,WARM SPRINGS,GA,31830,7066559351,Critical Access Hospitals
736058595406,PCP349589,3214 ROOSEVELT HWY,MANCHESTER,GA,31816-6418,,
877774432901,ATHENS ORTHOPEDIC CLINIC  PA,1765 OLD W BROAD ST,ATHENS,GA,30606-2853,706-549-1663,
258215272906,REDDY URGENT CARE,1061 DOWDY ROAD,ATHENS,GA,30606,706-621-7555,URGENT MEDICAL CARE CENTERS AND CLINICS (EXCEPT HOSPITALS)  FREESTANDING
428384433042,PIEDMONT ATHENS REGIONAL MEDICAL CENTER,1199 PRINCE AVENUE,ATHENS,GA,30606,7064757000,Acute Care Hospitals
720126965267,ST MARY'S HOSPITAL,1230 BAXTER STREET,ATHENS,GA,30606,7063893930,Acute Care Hospitals
568313864064,Athens Clinic,9249 Highway 29 North,Athens,GA,30601,706-227-4534,VA Facility
151754573255,INDEPENDENT PHYSICAL THERAPY OF GA  LLC,4510 NELSON BROGDON BLVD,SUGAR HILL,GA,30518-3478,770-945-1045,
270756241618,Oakwood VA Clinic,4175 Tanners Creek Drive,Flowery Branch,GA,30542,404-329-2222,VA Facility
973753955562,PROMED URGENT CARE,922 GAINESVILLE HIGHWAY,BUFORD,GA,30518,770-904-7821,URGENT MEDICAL CARE CENTERS AND CLINICS (EXCEPT HOSPITALS)  FREESTANDING
530265780976,NORTHSIDE HOSPITAL FORSYTH,1200 NORTHSIDE FORSYTH DRIVE,CUMMING,GA,30041,7708443200,Acute Care Hospitals
946285537170,AMERICAN CURRENT CARE PA,109 MINIS AVE,GARDEN CITY,GA,31408-2130,912-966-5445,
461575145361,PCP218703,12425 MORRIS RD A,ALPHARETTA,GA,30005-4137,,
652760783956,PCP56476,2801 BUFORD HWY NE,BROOKHAVEN,GA,30329-2137,404-636-1108,
813097143739,SAINT JOSEPH'S HOSPITAL OF ATLANTA  INC,5665 PEACHTREE DUNWOODY ROAD,ATLANTA,GA,30342,6788435720,Acute Care Hospitals
333813394999,NORTH ATLANTIC URGENT CARE,2700 CLAIRMONT ROAD,ATLANTA,GA,30329,404-327-8744,URGENT MEDICAL CARE CENTERS AND CLINICS (EXCEPT HOSPITALS)  FREESTANDING
668846485637,UNIVERSITY CARDIOLOGY ASSOCIATES LLC,316 WARE ST,THOMSON,GA,30824-2127,706-595-2205,
508874331511,UNIVERSITY HOSPITAL MCDUFFIE,2460 WASHINGTON ROAD,THOMSON,GA,30824,7065951411,Acute Care Hospitals
220668416980,PHOEBE PUTNEY MEMORIAL HOSPITAL,417 THIRD AVENUE,ALBANY,GA,31703,2293124068,Acute Care Hospitals
418300123345,PHOEBE PHYSICIAN GROUP INC,901 N MADISON ST,ALBANY,GA,31701-2210,229-883-1208,
883065949585,PCP321387,200 HWY 49 S,BYRON,GA,31008-6937,,
559982158350,MEDICAL CENTER OF PEACH COUNTY  NAVICENT HEALTH,1960 HIGHWAY 247 CONNECTOR,BYRON,GA,31008,4786542000,Critical Access Hospitals
397345393874,LIFEPOINTE URGENT CARE - BYRON,212 STATE HIGHWAY 49 NORTH,BYRON,GA,31008,478-956-5433,URGENT MEDICAL CARE CENTERS AND CLINICS (EXCEPT HOSPITALS)  FREESTANDING
891015656535,PCP24063,2801 BUFORD HWY NE,BROOKHAVEN,GA,30329-2143,404-964-9260,
529270103720,THE LONGSTREET CLINIC  PC,3215 MCCLURE BRIDGE RD,DULUTH,GA,30096-3223,678-312-6200,
927078143787,PCP112508,2801 BUFORD HWY NE,BROOKHAVEN,GA,30329-2124,,
193308771266,SOUTHERN REGIONAL MEDICAL CENTER,11 UPPER RIVERDALE ROAD  SW,RIVERDALE,GA,30274,7709918160,Acute Care Hospitals
878932532066,PIEDMONT MINOR EMERGENCY CLINIC,3108 PIEDMONT ROAD NORTHEAST,ATLANTA,GA,30305,404-237-1755,URGENT MEDICAL CARE CENTERS AND CLINICS (EXCEPT HOSPITALS)  FREESTANDING
793865338251,PCP260215,521 3RD AVE,ALBANY,GA,31701-1394,,
325999654463,THE MEDICAL CENTER OF PEACH COUNTY  INC.,701 BLUEBIRD BLVD,FORT VALLEY,GA,31030-5085,478-825-7000,
154481629775,MIDTOWN MEDICAL CENTER,710 CENTER ST BOX 951,COLUMBUS,GA,31901,7065711000,Acute Care Hospitals
346642159687,EMORY EGLESTON CHILDRENS HEART CENTER,705 17TH ST,COLUMBUS,GA,31901-3513,404-256-2593,
824454459692,ST FRANCIS PHYSICIAN PRACTICES LLC,2300 MANCHESTER EXPY,COLUMBUS,GA,31904-6802,706-322-6646,
770942112010,ST FRANCIS HOSPITAL,2122 MANCHESTER EXPRESSWAY,COLUMBUS,GA,31995,7065964020,Acute Care Hospitals
710420153556,GORDON HOSPITAL,1035 RED BUD ROAD,CALHOUN,GA,30701,7066292895,Acute Care Hospitals
759996151323,FLOYD HEALTHCARE MANAGEMENT INC,6000 JOE FRANK HARRIS NWPKWY,ADAIRSVILLE,GA,30103-2443,770-773-9448,
938451329205,Rome VA Clinic,30 Chateau Dr  SE,Rome,GA,30161,404-329-2222,VA Facility
501160773079,AEGIS GROUP PRACTICE LLC,1155 MOUNT VERNON HWY,DUNWOODY,GA,30338-5429,800-638-1187,
472350807934,PCP168434,507 ALABAMA AVE,BREMEN,GA,30110-2007,,
629644225588,HIGGINS GENERAL HOSPITAL,200 ALLEN MEMORIAL DRIVE,BREMEN,GA,30110,7708242210,Critical Access Hospitals
723858165576,CHOICEONE URGENT CARE OF GWINNETT LLC,5910 SUWANEE DAM RD,SUGAR HILL,GA,30518-5648,470-326-7600,
521674999111,PCP54830,5680 PEACHTREE PKWY,PEACHTREE CORNERS,GA,30092-2857,678-851-0528,
890553689962,PCP32452,440 MILLEDGE CIR,ATHENS,GA,30606-4336,706-549-9196,
453435385489,EMERGINET  LLC,1000 THORNTON RD,LITHIA SPRINGS,GA,30122-2612,770-732-7777,
589698521675,WELLSTAR COBB HOSPITAL,3950 AUSTELL RD,AUSTELL,GA,30106,7707324000,Acute Care Hospitals
309390522592,TANNER MEDICAL CENTER - CARROLLTON,705 DIXIE STREET,CARROLLTON,GA,30117,7708369580,Acute Care Hospitals
536123382108,BOWDON FAMILY MEDICINE LLC,501 MITCHELL AVE,BOWDON,GA,30108-1407,770-876-3127,
634702850951,AMERICAN CURRENT CARE PA,5670 FULTON INDUSTRIAL BLVD,FULTON,GA,30336-2659,404-344-3930,
429890155577,PCP140625,3042 OAKCLIFF RD,DORAVILLE,GA,30340-2643,,
534469506095,PCP145935,2320 HAMILTON RD,COLUMBUS,GA,31904-8534,,
619331264518,NORTHSIDE MEDICAL CENTER,100 FRIST COURT,COLUMBUS,GA,31909,7064942100,Acute Care Hospitals
577176626984,NEPHROLOGY ASSOCIATES PC,1303 DANTIGNAC ST,AUGUSTA,GA,30901-2792,706-722-6900,
378700645697,MIDDLE GEORGIA FAMILY REHAB,100 HAMILTON POINTE DR,BYRON,GA,31008,478-538-1436,
704911349721,PCP149974,157 ADAMS DR,DEMOREST,GA,30535-4564,,
178751886335,HABERSHAM COUNTY MEDICAL CTR,541 HISTORIC HIGHWAY 441-NORTH,DEMOREST,GA,30535,7067542161,Acute Care Hospitals
174613723854,ATLANTIC RADIOLOGY ASSOCIATES LLC,136 TRADERS WAY,POOLER,GA,31322-4035,786-621-3900,
513439323091,NORTHSIDE SURGICAL PROFESSIONAL SERVICES LLC,6135 BARFIELD RD,SANDY SPRINGS,GA,30328-4317,404-250-6671,
346946742800,PCP156801,475 WASHINGTON ST C,CLARKESVILLE,GA,30523-6028,,
719742173896,PCP165774,2406 MACY DR,ROSWELL,GA,30076-6343,,
153743506285,ROSWELL URGENT CARE CENTER,660 WEST CROSSVILLE ROAD,ROSWELL,GA,30075,770-992-4700,URGENT MEDICAL CARE CENTERS AND CLINICS (EXCEPT HOSPITALS)  FREESTANDING
330977237866,HIDDEN VALLEY MEDICAL CENTER INC,101 RIVERSTONE VIS,BLUE RIDGE,GA,30513-6665,706-946-4248,
775183797448,FANNIN REGIONAL HOSPITAL,2855 OLD HIGHWAY 5 NORTH,BLUE RIDGE,GA,30513,7066323711,Acute Care Hospitals
944073230371,CORE PHYSICAL THERAPY  PC,101 STILLWATER CIRCLE,BONAIRE,GA,31005-3857,478-293-1680,
973170159986,HOUSTON MEDICAL CENTER,1601 WATSON BOULEVARD,WARNER ROBINS,GA,31093,4789224281,Acute Care Hospitals
846347201623,HOUSTON MEDICAL CENTER - PAVILLION MED STOP,233 NORTH HOUSTON ROAD,WARNER ROBINS,GA,31093,478-923-2843,URGENT MEDICAL CARE CENTERS AND CLINICS (EXCEPT HOSPITALS)  FREESTANDING
886516754650,GREENSBORO SPORTS  SPINE  AND,118 AS MAIN ST,GREENSBORO,GA,30642-1112,706-817-4111,
802953681670,ST MARY'S GOOD SAMARITAN HOSPITAL,5401 LAKE OCONEE PARKWAY,GREENSBORO,GA,30642,7064537331,Critical Access Hospitals
106091169123,PCP193695,784 PRINCE AVE,ATHENS,GA,30606-5902,,
570698938039,GREATER ATLANTA FAMILY HEALTHCARE LLC,3700 MARKET ST C,CLARKSTON,GA,30021-2652,404-298-9333,
611319656236,DEKALB MEDICAL CENTER,2701 N DECATUR ROAD,DECATUR,GA,30033,4045011000,Acute Care Hospitals
783997211982,WELLSTAR WEST GEORGIA MEDICAL CENTER,1514 VERNON ROAD,LAGRANGE,GA,30240,7068821411,Acute Care Hospitals
747565580653,SOUTHERN REHAB AND SPORTS MEDICINE  INC.,1610 E 10TH ST,WEST POINT,GA,31833-3416,706-845-9383,
207918544167,PCP142787,6360 MABLETON PKWY SW,MABLETON,GA,30126-5210,,
482051439131,TX TEAM REHAB INC,25 GLENLAKE PKWY,SANDY SPRINGS,GA,30328-3403,770-695-0230,
570916165452,WELLSTAR URGENT CARE - DELK ROAD,2890 DELK ROAD SOUTHEAST,MARIETTA,GA,30067,770-955-8620,URGENT MEDICAL CARE CENTERS AND CLINICS (EXCEPT HOSPITALS)  FREESTANDING
176056772221,LEGACY HEALTHCARE SERVICES   INC.,255 VAUGHN DR,ALPHARETTA,GA,30009-2415,770-521-9707,
849873559076,NORTHSIDE URGENT CARE AND FAMILY MEDICINE - JOHNS CREEK,11108 STATE BRIDGE ROAD,ALPHARETTA,GA,30022,770-754-0788,URGENT MEDICAL CARE CENTERS AND CLINICS (EXCEPT HOSPITALS)  FREESTANDING
305570792382,LAGRANGE INTERNAL MEDICINE  PC,1602 VERNON RD,LAGRANGE,GA,30240-4129,706-882-9341,
511477549110,METRO MEDICAL ASSOCIATES,11379 SOUTHBRIDGE PKWY,ALPHARETTA,GA,30022-4469,770-770-0750,
588274953805,ATHENS ORTHOPEDIC CLINIC  PA,1000 COWLES CLINIC WAY,GREENSBORO,GA,30642-5285,706-549-1663,
547983903454,Fort McPherson VA Campus,1701 Hardee Ave.  SW,Atlanta,GA,30310,404-321-6111 X 2222,VA Facility
921549658935,PCP111340,102 GUNN RD,CENTERVILLE,GA,31028-1706,,
799534601248,CENTRAL GEORGIA KIDNEY SPECIALISTS  PC,135 AVERA DR,FORT VALLEY,GA,31030-5007,478-745-4322,
836720402445,PRONET IMAGING MEDICAL GROUP INC,1051 THORTON CREEK,GREENSBORO,GA,30642-6458,310-445-5666,
453524834978,PCP210966,5077 DALLAS HWY 315,POWDER SPRINGS,GA,30127-4510,,
109807660479,ATLANTA SOUTH NEPHROLOGY PC,1275 CLEVELAND AVE,EAST POINT,GA,30344-3433,404-761-0819,
932076688619,ENT OF ATHENS  LLC,150 NACOOCHEE AVE,ATHENS,GA,30601-1823,706-546-7908,
638556239707,AMERICAN CURRENT CARE PA,4223 HWY 42,CONLEY,GA,30288-2141,404-366-2900,
831415245556,PCP31912,4771 FLOYD SWRD,MABLETON,GA,30126-1321,770-739-7733,
735929884973,CONCENTRA URGENT CARE MEDICAL CENTER - FULTON,5670 FULTON INDUSTRIAL BOULEVARD SOUTHWEST,ATLANTA,GA,30336,404-344-3930,URGENT MEDICAL CARE CENTERS AND CLINICS (EXCEPT HOSPITALS)  FREESTANDING
849981498340,HEALING HANDS PHYSICAL THERAPY CENTERS  INC.,1930 HIGHLAND AVE,AUGUSTA,GA,30904-7803,706-481-9105,
310750904265,AUGUSTA VETERANS AFFAIRS MEDICAL CENTER,950 15TH STREET,AUGUSTA,GA,30901,706-733-0188,URGENT MEDICAL CARE CENTERS AND CLINICS (EXCEPT HOSPITALS)  FREESTANDING
827678569721,WELLSTAR MEDICAL GROUP  LLC,4441 ATLANTA RD SE,SMYRMA,GA,30080-6537,,
493947458294,VININGS FAMILY HEALTH CARE CENTER AND INTERNAL MEDICINE,4199 PACES FERRY ROAD NORTHWEST,ATLANTA,GA,30339,770-436-2444,URGENT MEDICAL CARE CENTERS AND CLINICS (EXCEPT HOSPITALS)  FREESTANDING
312319729310,PCP134588,1375 E LING AVE,KINGSLAND,GA,31548,,
282379669159,BACON COUNTY HOSPITAL,302 SOUTH WAYNE STREET,ALMA,GA,31510,9126328961,Critical Access Hospitals
509636937986,CAMDEN URGENT CARE WELLNESS CENTER,1375 EAST KING AVENUE,KINGSLAND,GA,31548,912-576-9332,URGENT MEDICAL CARE CENTERS AND CLINICS (EXCEPT HOSPITALS)  FREESTANDING
311056349743,PCP113831,1605 MULKEY RD,AUSTELL,GA,30106-1127,,
557556153464,WELLSTAR KENNESTONE HOSPITAL,677 CHURCH STREET,MARIETTA,GA,30060,7707935000,Acute Care Hospitals
962051747852,PCP126719,3400 BLUE SPRINGS NWRD,KENNESAW,GA,30144-1079,,
101420644897,KENNESAW URGENT CARE LIMITED LIABILITY COMPANY,3900 LEGACY PARK BOULEVARD NORTHWEST,KENNESAW,GA,30144,678-797-6277,URGENT MEDICAL CARE CENTERS AND CLINICS (EXCEPT HOSPITALS)  FREESTANDING
722250515417,AMERICAN PROFESSIONAL ASSOCIATES LLC,1000 COWLES CLINC WAY,GREENSBORO,GA,30642-4514,706-454-1624,
407742846142,PCP89063,1260 HWY 54 W,FAYETTEVILLE,GA,30214,,
219429425274,SOUTH GEORGIA RADIOLOGY ASSOCIATES LLC,550 MASTERS CIR,DUBLIN,GA,31021-3279,888-545-5551,
491342712605,FAIRVIEW PARK HOSPITAL,200 INDUSTRIAL BOULEVARD,DUBLIN,GA,31021,4782743100,Acute Care Hospitals
993710127800,PIEDMONT PROFESSIONAL SERVICES  LLC,2154 JOHNSON FERRY RD NE,BROOKHAVEN,GA,30319-2558,678-732-1509,
145115886521,PERIMETER CLINIC - BUCKHEAD,3867 ROSWELL ROAD NORTHEAST,ATLANTA,GA,30342,678-904-5611,URGENT MEDICAL CARE CENTERS AND CLINICS (EXCEPT HOSPITALS)  FREESTANDING
393527960951,PCP203761,140 BATTLEWOOD DR,FORT OGLETHORPE,GA,30742-4006,706-861-7070,
890695931466,PCP87118,318 S WELBORN ST,HINESVILLE,GA,31313-3127,,
790292808662,LIBERTY REGIONAL MEDICAL CENTER,462 E G MILES PARKWAY,HINESVILLE,GA,31310,9123699438,Critical Access Hospitals
205124628478,SCREVEN COUNTY FAMILY HEALTH CENTER LLC,105 ROCKY FORD RD,SYLVANIA,GA,30467-2027,912-564-7133,
394667326796,OPTIM MEDICAL CENTER - SCREVEN,215 MIMS ROAD,SYLVANIA,GA,30467,9125647426,Critical Access Hospitals
447882166127,COASTAL ALLERGY AND ASTHMA PC,1601 FAIR RD,STATEBORO,GA,31406,912-354-6190,
165456623987,PCP103337,750 N COBB ST,MILLEDEGEVILLE,GA,31061-2390,,
286355258201,OCONEE REGIONAL MEDICAL CENTER,821 N COBB STREET  POST OFFICE BOX 690,MILLEDGEVILLE,GA,31061,4784543550,Acute Care Hospitals
478678665149,TENDER CARE COMMUNITY HEALTH CENTER,803 SOUTH MAIN STREET,GREENSBORO,GA,30642,706-453-1201,URGENT MEDICAL CARE CENTERS AND CLINICS (EXCEPT HOSPITALS)  FREESTANDING
121848419749,HOSPITAL AUTHORITY OF RANDOLPH COUNTY,361 RANDOLPH ST,CUTHBERT,GA,39840-6127,229-732-2181,
779751977265,SOUTHWEST GEORGIA REGIONAL MEDICAL CENTER,361 RANDOLPH STREET,CUTHBERT,GA,39840,2297322181,Critical Access Hospitals
787582362770,EDISON MEDICAL CENTER - URGENT CARE,19519 WEST HARTFORD STREET,EDISON,GA,39846,229-835-2238,URGENT MEDICAL CARE CENTERS AND CLINICS (EXCEPT HOSPITALS)  FREESTANDING
871659673340,SJC MEDICAL GROUP  INC,119 CANAL ST,POOLER,GA,31322-6003,912-348-3003,
780250585787,PCP194336,5843 DEOSTA DR,LAKE PARK,GA,31636-3405,,
492972812070,SOUTH GEORGIA MEDICAL CENTER,2501 NORTH PATTERSON STREET  PO BOX 1727,VALDOSTA,GA,31603,2293331020,Acute Care Hospitals
169292862431,VALDOSTA FAMILY MEDICINE,2412 NORTH OAK STREET,VALDOSTA,GA,31602,229-244-1400,URGENT MEDICAL CARE CENTERS AND CLINICS (EXCEPT HOSPITALS)  FREESTANDING
675067449708,PATHWAYS CENTER FOR BEHAVIORAL AND DEVELOPMENTAL GROWTH,244 ODELL RD,GRIFFIN,GA,30224-4878,770-229-3407,
653370777501,WELLSTAR SPALDING REGIONAL HOSPITAL,601 SOUTH 8TH STREET,GRIFFIN,GA,30223,7702282721,Acute Care Hospitals
248282441091,FAMILY MEDICAL CENTER,1657 NORTH EXPRESSWAY,GRIFFIN,GA,30223,770-228-2641,URGENT MEDICAL CARE CENTERS AND CLINICS (EXCEPT HOSPITALS)  FREESTANDING
930332730089,PCP95915,3826 N DRUID HILLS RD,DECATUR,GA,30033-3015,,
799998686006,FAMILY CARE DECATUR,1045 SYCAMORE DRIVE,DECATUR,GA,30030,404-501-4270,URGENT MEDICAL CARE CENTERS AND CLINICS (EXCEPT HOSPITALS)  FREESTANDING
687077477958,HIDDEN VALLEY MEDICAL CENTER INC,2855 OLD HWY 5 N,BLUE RIDGE,GA,30513-6248,706-946-4210,
731018481486,Blairsville VA CBOC,1294 Highway 515 East  Suite 100,Blairsville,GA,30512,404-329-2222,VA Facility
904390323125,JOHNS CREEK DERMATOLOGY AND FAMILY MEDICINE  P.C.,6300 HOSPITAL PKWY,JOHNS CREEK,GA,30097-1828,770-771-6591,
426552695636,Savannah Vet Center,321 Commercial Dr,Savannah,GA,31406,912-961-5800 Or 912-961-5800,VA Facility
805331690163,FRESENIUS VASCULAR CARE AUGUSTA  LLC,3624 J DEWEY GRAY CIR,AUGUSTA,GA,30909-6585,706-754-9932,
366576753816,AMERICAN CURRENT CARE PA,6334 ROSWELL RD NE,SANDY SPRINGS,GA,30328-3210,678-812-2277,
902359483861,EAST GEORGIA REGIONAL MEDICAL CENTER,1499 FAIR ROAD,STATESBORO,GA,30458,9124861500,Acute Care Hospitals
492018414198,PCP354551,1497 FAIR RD,STATESBORO,GA,30458-0822,,
877602264880,PCP166675,950 SANDERS RD,CUMMING,GA,30041-5960,,
857206686820,TENDERCARE CLINIC INC.,1041 PARK DR,GREENSBORO,GA,30642-3465,706-453-4945,
138081320105,ROCKDALE MEDICAL CENTER,1412 MILSTEAD AVENUE  NE,CONYERS,GA,30012,7709183000,Acute Care Hospitals
490308110487,SOUTHERN GASTROENTEROLOGY SPECIALISTS  P.C,4865 BILL GARDNER PKWY,LOCUST GROVE,GA,30248-3644,770-692-0100,
775778798491,CONCENTRA URGENT CARE - SAVANNAH,109 MINUS AVENUE,GARDEN CITY,GA,31408,912-966-5445,URGENT MEDICAL CARE CENTERS AND CLINICS (EXCEPT HOSPITALS)  FREESTANDING
779760999260,CLINICAL COLLEAGUES INC,821 N COBB ST,MILLEGEVILLE,GA,31061-0000,478-454-3505,
762429536672,Milledgeville Community Based Outpatient Clinic,2249 Vinson Hwy SE,Milledgeville,GA,31061,478-414-4540,VA Facility
321713781910,MEMORIAL HEALTH URGENTONE - SAVANNAH MALL,14089 ABERCORN STREET,SAVANNAH,GA,31419,912-350-2138,URGENT MEDICAL CARE CENTERS AND CLINICS (EXCEPT HOSPITALS)  FREESTANDING
187282841291,PCP136332,5987 MABLETON SWPKWY,MABLETON,GA,30126-3464,770-941-4012,
742670624131,URGENT CARE OF SAVANNAH,340 EISENHOWER DRIVE,SAVANNAH,GA,31406,912-352-4311,URGENT MEDICAL CARE CENTERS AND CLINICS (EXCEPT HOSPITALS)  FREESTANDING
840979933060,AMERICAN CURRENT CARE PA,3580 ATLANTA AVE,HAPEVILLE,GA,30354-1706,404-768-3351,
224244358148,PIEDMONT HOSPITAL,1968 PEACHTREE RD NW,ATLANTA,GA,30309,4046055000,Acute Care Hospitals
114812169231,GOOD SAMARITAN HOSPITAL  INC.,5401 LAKE OCONEE PKWY,GREENSBORO,GA,30642-4232,706-453-7331,
825269842927,PCP148308,757 CONCORD SERD,SMYRNA,GA,30082-2625,,
348044906340,WASHINGTON COUNTY REGIONAL MEDICAL CENTER,610 SPARTA ROAD,SANDERSVILLE,GA,31082,4782402100,Acute Care Hospitals
109257248332,PCP253982,205 MEDICAL ARTS DR,SANDERSVILLE,GA,31082-1987,,
809340818296,WASHINGTON COUNTY FAMILY PRACTICE,632 FERNCREST DRIVE,SANDERSVILLE,GA,31082,478-552-9000,URGENT MEDICAL CARE CENTERS AND CLINICS (EXCEPT HOSPITALS)  FREESTANDING
342473355262,PCP26660,7363 HALL RD,COOLIDGE,GA,31738-2407,229-228-5192,
874759295132,JOHN D ARCHBOLD MEMORIAL HOSPITAL,915 GORDON AVENUE & MIMOSA DRIVE,THOMASVILLE,GA,31792,2292282880,Acute Care Hospitals
669071515622,PCP89135,2078 TERON TRACE,DACULA,GA,30019,,
782929791134,NORTHEAST GEORGIA MEDICAL CENTER BARROW,316 NORTH BROAD STREET,WINDER,GA,30680,7708488611,Acute Care Hospitals
296831835751,LIFEPOINTE URGENT CARE - GRAY,260 WEST CLINTON STREET,GRAY,GA,31032,478-986-5500,URGENT MEDICAL CARE CENTERS AND CLINICS (EXCEPT HOSPITALS)  FREESTANDING
874035869222,PCP97068,650 ALSTON ST,RICHLAND,GA,31825-6043,229-887-3351,
239969788204,MIDTOWN ACUTE CARE,3465 MACON ROAD,COLUMBUS,GA,31907,706-243-3051,URGENT MEDICAL CARE CENTERS AND CLINICS (EXCEPT HOSPITALS)  FREESTANDING
393615335664,PCP97805,1900 10TH AVE,COLUMBUS,GA,31901-3610,,
310139850202,PRIVIA MEDICAL GROUP OF GEORGIA LLC,1010 E FWY DR SE,CONYERS,GA,30094-5965,770-922-8222,
565987938352,CONCENTRA URGENT CARE MEDICAL CENTER - CONYERS,1157-B WEST AVENUE,CONYERS,GA,30012,770-760-0066,URGENT MEDICAL CARE CENTERS AND CLINICS (EXCEPT HOSPITALS)  FREESTANDING
474821982446,ANKLE AND FOOT ASSOC  LLC,1010 WESTFRANKLIN ST,SYLVESTER,GA,31791-1900,229-776-2914,
583530154910,PHOEBE WORTH MEDICAL CENTER,807 SOUTH ISABELLA STREET,SYLVESTER,GA,31791,2297773851,Critical Access Hospitals
871819355820,WAL-MART STORES EAST LP,1735S HWY 27,CARROLLTON,GA,30117-8941,770-834-3513,
991212742691,GEORGIA ANESTHESIOLOGISTS  P.C.,8954 HOSPITAL DR,DOUGLASVILLE,GA,30134-2272,770-794-0477,
627621558178,COFFEE REGIONAL MEDICAL CENTER,1101 OCILLA ROAD,DOUGLAS,GA,31533,9123835620,Acute Care Hospitals
875751338286,PHOEBE WORTH MEDICAL CENTER  INC,807 S ISABELLA ST,SYLVESTER,GA,31791-7554,,
507756438859,EAST ALBANY MEDICAL CENTER,1712 EAST BROAD AVENUE,ALBANY,GA,31705,229-639-3100,URGENT MEDICAL CARE CENTERS AND CLINICS (EXCEPT HOSPITALS)  FREESTANDING
282244830961,ALBANY SURGICAL  P.C.,605 N WESTOVER BLVD,ALBANY,GA,31707-2188,229-434-4200,
664944782220,Albany Clinic,814 Radford Blvd.  Building 7000,Albany,GA,31701,229-446-9000,VA Facility
680542889235,RESOLVE PSYCHOTHERAPY  LLC,3164 KENSINGTON RD,AVONDALE ESTATES,GA,30002-1456,404-844-1691,
306538751360,A. DHANDAYUTHAPANI MD.  PC,2300 MANCHESTER EXPY,COLUMBUS,GA,31904-6802,706-660-5080,
643102958921,ACUTE CARE EXPRESS,7901 VETERANS PARKWAY,COLUMBUS,GA,31909,706-321-1223,URGENT MEDICAL CARE CENTERS AND CLINICS (EXCEPT HOSPITALS)  FREESTANDING
693618320909,SAINT JOSEPH'S MERCY CARE SERVICES INC,5134 PEACHTREE RD,CHAMBLEE,GA,30341-2724,678-872-7100,
517651819823,PHYSICIANS SPINE AND REHAB SPECIALISTS OF GA,790 CHURCH ST,MURIETTA,GA,30060-8958,770-419-9902,
383858418364,STEPHENS CLINIC  LLC,1109 MEDICAL CTR DR,AUGUSTA,GA,30909,706-863-7021,
129697743713,NORTHSIDE HOSPITAL,1000 JOHNSON FERRY ROAD  NE,ATLANTA,GA,30342,4048518000,Acute Care Hospitals
109699462776,PCP89478,4144 CLAIRMONT RD,CHAMBLEE,GA,30341-3237,,
756684780106,PCP222681,4530 NELSON BROGDON BLVD,SUGAR HILL,GA,30518-3478,770-271-8949,
896091850667,PCP145890,207 CHESTNUT ST,BREMEN,GA,30110-2021,770-537-5246,
926019155216,PCP265297,970 RAO DR,MONROE,GA,30655-2054,,
341002855655,CLEARVIEW  REGIONAL MEDICAL CENTER,2151 WEST SPRING STREET,MONROE,GA,30655,7702678461,Acute Care Hospitals
115163641787,ST MARY'S MEDICAL GROUP  INC,700 SUNSET DR,ATHENS,GA,30606-7721,706-548-9111,
519004729695,REGIONAL FIRSTCARE - ATHENS,485 UNITED STATES HIGHWAY 29 NORTH,ATHENS,GA,30601,706-353-6000,URGENT MEDICAL CARE CENTERS AND CLINICS (EXCEPT HOSPITALS)  FREESTANDING
957987718060,MIDDLE FLINT BEHAVIORAL HEALTHCARE,415 N JACKSON ST,AMERICUS,GA,31709-3015,229-931-2504,
336855820482,PHOEBE SUMTER MEDICAL CENTER,126 HIGHWAY 280 W,AMERICUS,GA,31719,2299311280,Acute Care Hospitals
393038862853,PCP95657,2325 LOG CABIN DR SE,VININGS,GA,30339-6742,,
283381106834,PHOEBE PUTNEY MEMORIAL HOSPITAL  INC,120 HWY 280 W,AMERICUS,GA,31719-8645,229-312-7141,
125340733365,CRISP REGIONAL CLINIC AND URGENT CARE,216 HOSPITAL DRIVE,CORDELE,GA,31015,229-271-9330,URGENT MEDICAL CARE CENTERS AND CLINICS (EXCEPT HOSPITALS)  FREESTANDING
171770484754,COLISEUM NORTHSIDE HOSPITAL,400 CHARTER BOULEVARD,MACON,GA,31210,4787578200,Acute Care Hospitals
716622112931,MEDICAL CENTER  NAVICENT HEALTH (THE),777 HEMLOCK STREET,MACON,GA,31201,4786331000,Acute Care Hospitals
252484665589,PCP120986,3323 NORTHSIDE DR,MACON,GA,31210-2503,,
244085106463,COLISEUM MEDICAL CENTERS,350 HOSPITAL DRIVE,MACON,GA,31217,4787657000,Acute Care Hospitals
296055242378,RENAL ASSOCIATES OF LAGRANGE LLC,4130 WHITE HOUSE PKWY,WARM SPRINGS,GA,31830-2149,706-882-2800,
329877277607,ORTHOPEDIC SURGEONS OF GEORGIA LLC,100 DOCTORS DR,DOUGLAS,GA,31533-2211,912-383-6575,
999832523260,IRWIN COUNTY HOSPITAL,710 N IRWIN AVENUE,OCILLA,GA,31774,2294683845,Acute Care Hospitals
310743176988,CLINCH MEMORIAL HOSPITAL,1050 VALDOSTA HIGHWAY,HOMERVILLE,GA,31634,9124875211,Critical Access Hospitals
472570401386,FLOYD MEDICAL CENTER,304 TURNER MCCALL BLVD P O BOX 233,ROME,GA,30162,7065096900,Acute Care Hospitals
924850699166,PCP159722,305 REDMOND RD NW,ROME,GA,30165-1539,,
240136396433,FLOYD URGENT CARE IN ROME,304 SHORTER AVENUE NORTHWEST,ROME,GA,30165,706-291-3700,URGENT MEDICAL CARE CENTERS AND CLINICS (EXCEPT HOSPITALS)  FREESTANDING
150237286587,CARDIOPULMONARY ASSOCIATES  P.C.,503 BLUEBIRD BLVD,FORT VALLEY,GA,31030-5096,478-741-1118,
412039814663,PCP105979,2300 DAWSON RD,ALBANY,GA,31707-2804,,
101783653261,SOUTH ALBANY MEDICAL CENTER,1300 NEWTON ROAD,ALBANY,GA,31701,229-431-3120,URGENT MEDICAL CARE CENTERS AND CLINICS (EXCEPT HOSPITALS)  FREESTANDING
364517640640,COFFEE COUNTY BOARD OF HEALTH,1003 SHIRLEY AVE,DOUGLAS,GA,31533-2123,,
870296784869,GEORGIA DERMATOLOGY AND SKIN CANCER CENTER  LLC,631 E FORSYTH ST,AMERICUS,GA,31709-3716,229-924-6006,
809058362329,FAMILY MEDICAL CENTER,1512 UNITED STATES HIGHWAY 19 NORTH,THOMASTON,GA,30286,706-647-2641,URGENT MEDICAL CARE CENTERS AND CLINICS (EXCEPT HOSPITALS)  FREESTANDING
187208325110,GILBERT JAMES OD INC,5943 JOE FRANK HARRIS NWPKWY,ADAIRSVILLE,GA,30103-2451,770-773-1584,
659914696394,PCP294608,1030 WOODSTOCK RD,ROSWELL,GA,30075-8271,770-993-0880,
773706300957,MEDCARE WALK IN CLINIC,14B LEGACY WAY,ADAIRSVILLE,GA,30103,770-773-9902,URGENT MEDICAL CARE CENTERS AND CLINICS (EXCEPT HOSPITALS)  FREESTANDING
450427857265,LARRY HUTCHISON DC PC,1103 N MADISON AVE,DOUGALS,GA,31533-2803,912-384-3002,
145804854761,LOWER OCONEE URGENT CARE,903 EAST WILLOW CREEK LANE,MCRAE,GA,31055,229-868-4122,URGENT MEDICAL CARE CENTERS AND CLINICS (EXCEPT HOSPITALS)  FREESTANDING
547287796043,FLINT RIVER PHYSICAL THERAPY,2405 OSLER CT,ALBANY,GA,31707-0215,229-883-4009,
666076768130,PCP136845,206 N GREEN ST,SWAINSBORO,GA,30401-3218,,
846940475326,EMANUEL MEDICAL CENTER,117 KITE ROAD,SWAINSBORO,GA,30401,4782891304,Acute Care Hospitals
575934490402,ALBANY AREA PRIMARY HEALTH CARE INC,2100 PALMYRA RD,ALBANY,GA,31701-1320,229-888-3636,
624163155084,VICTORY THERAPY AND WELLNESS  LLC,114 VICTORY DR,SWAINSBORO,GA,30401-3235,478-237-4017,
176275884861,PCP137777,206 REES ST,AMERICUS,GA,31709-3753,,
956035639390,ROBERT D. MIXSON MD PA A GEORGIA CORP,104 LAKESHORE DR,ST MARYS,GA,31558-3809,912-882-7100,
400930307583,REDMOND REGIONAL MEDICAL CENTER,501 REDMOND ROAD,ROME,GA,30165,7068023012,Acute Care Hospitals
953961556546,PRIMARY HEALTH CARE CENTER OF DADE  INC.,11638 HWY 27 8,SUMMERVILLE,GA,30747-8515,706-907-0932,
197920229067,FLOYD URGENT CARE IN SUMMERVILLE,11766 UNITED STATES HIGHWAY 27,SUMMERVILLE,GA,30747,706-857-1010,URGENT MEDICAL CARE CENTERS AND CLINICS (EXCEPT HOSPITALS)  FREESTANDING
657632359544,HARBIN CLINIC  LLC,14 A LEGACY WAY,ADAIRSVILLE,GA,30103-2455,770-877-3880,
999742399159,PIEDMONT MEDICAL CARE CORPORATION,35 COLLIER RD,ATLNTA,GA,30309-1606,404-350-1010,
570168995442,CONCENTRA URGENT CARE - MIDTOWN,688 SPRING STREET NORTHWEST,ATLANTA,GA,30308,404-881-1155,URGENT MEDICAL CARE CENTERS AND CLINICS (EXCEPT HOSPITALS)  FREESTANDING
837920812392,FASTTRACK IMMEDIATE CARE OF ALBANY,2822 NOTTINGHAM WAY,ALBANY,GA,31707-7629,229-496-1193,
614822594180,MAGUIRE THERAPY SERVICES INC.,2258 WRIGHTSBORO RD,AUGUSTA,GA,30904-4789,706-724-6543,
795699196437,SWEET DREAMS NURSE ANESTHESIA  INC.,117 KITE RD,SWAINSBORO,GA,30401-3231,478-289-1100,
677675518125,RODNEY T STANLEY SENIOR HEALTH CENTER,110 R T STANLEY SENIOR PLACE,LYONS,GA,30436,912-526-9355,URGENT MEDICAL CARE CENTERS AND CLINICS (EXCEPT HOSPITALS)  FREESTANDING
243100849254,YONAH MOUNTAIN FAMILY PRACTICE,55 CANTRELL RD,CLEVELAND,GA,30528-1083,706-348-8763,
115232899212,ADVENTIST HEALTH SYSTEM GEORGIA INC,6000 JOE FRANK HARRIS NWPKWY,ADAIRSVILLE,GA,30103-2443,770-773-9201,
523654441802,PCP103249,5885 GLENRIDGE DR NE,SANDY SPRINGS,GA,30328-5572,,
112095388416,ATHENS ORTHOPEDIC CLINIC  PA,3440 HWY 81,LOGANVILLE,GA,30052-9112,706-549-1663,
168617598325,EASTSIDE MEDICAL CENTER,1700 MEDICAL WAY,SNELLVILLE,GA,30078,7707362498,Acute Care Hospitals
282219952646,PREMIER IMMEDIATE CARE,289 GRAYSON HIGHWAY SOUTHWEST,LAWRENCEVILLE,GA,30045,678-376-1300,URGENT MEDICAL CARE CENTERS AND CLINICS (EXCEPT HOSPITALS)  FREESTANDING
624620220944,PCP141154,4530 S BERKELEY LAKE RD B,BERKELEY LAKE,GA,30071-1657,,
298506768128,PCP199061,2040 BOWMAN PARK,MACON,GA,31210-5782,,
550194949278,PCP87878,763 JOHNSTON WAY,LAKE PARK,GA,31636-3047,,
387640307839,RUTLAND FAMILY HEALTHCARE LLC,4226 HARTLEY BRIDGE RD,MACON,GA,31216-4116,478-781-5065,
507438970183,GWINNETT PHYSICIAN GROUP LLC,3620 HOWELL FERRY RD,DULUTH,GA,30096-3178,678-312-3294,
579557237667,AGA PROFESSIONAL SERVICES LLC,226 E COLLEGE ST,GRIFFIN,GA,30224-4348,,
959643662197,SLEEP PRACTITIONERS  LLC,275 SHERATON BLVD,MACON,GA,31210-1359,478-745-5779,
849942370849,MED CENTER OF CENTRAL GEORGIA - EAST,1339 GRAY HIGHWAY,MACON,GA,31211,478-749-9200,URGENT MEDICAL CARE CENTERS AND CLINICS (EXCEPT HOSPITALS)  FREESTANDING
265686191195,MPPG INC,3776 US HWY 17,RICHMOND HILL,GA,31324,912-350-2700,
116428841397,CANDLER HOSPITAL,5353 REYNOLDS STREET,SAVANNAH,GA,31412,9128196000,Acute Care Hospitals
545650966700,AEGIS GROUP PRACTICE LLC,13943 HWY 9 N,MILTON,GA,30004-3239,800-444-6845,
176608842698,ONESOURCE HEALTHCARE GROUP  LLC,701 N SLAPPEY BLVD,ALBANY,GA,31701-1413,229-435-4747,
588046987154,ALBANY PRIMARY HEALTH CARE,804 14TH AVENUE,ALBANY,GA,31701,229-888-9585,URGENT MEDICAL CARE CENTERS AND CLINICS (EXCEPT HOSPITALS)  FREESTANDING
172273441572,GILFERG WELLNESS GROUP,323 N MAIN ST,ADAIRSVILLE,GA,30103-2438,770-773-9997,
679247344967,GORDON URGENT CARE - ADAIRSVILLE,7435 STATE HIGHWAY 140,ADAIRSVILLE,GA,30103,770-769-9555,URGENT MEDICAL CARE CENTERS AND CLINICS (EXCEPT HOSPITALS)  FREESTANDING
976161662830,PCP11690,4985 LAVISTA RD,TUCKER,GA,30084-4470,770-508-4456,
700272112132,PCP209544,6857 GANGLE CT,LITHONIA,GA,30058-3074,678-526-7985,
361109206437,DEKALB MEDICAL CENTER AT HILLANDALE,2801 DEKALB MEDICAL PARKWAY,LITHONIA,GA,30058,4045018040,Acute Care Hospitals
352586156332,DEKALB MEDICAL CENTER,2801 DEKALB MEDICAL PARKWAY,LITHONIA,GA,30058,404-501-8000,URGENT MEDICAL CARE CENTERS AND CLINICS (EXCEPT HOSPITALS)  FREESTANDING
617970703866,MYEYEDR OPTOMETRY OF GEORGIA  LLC,2485 N COLUMBIA ST,MILLEDGEVILLE,GA,31061-5421,478-452-6569,
535207671787,NORTHEAST GEORGIA MEDICAL CENTER  INC,743 SPRING STREET,GAINESVILLE,GA,30501,7705353553,Acute Care Hospitals
638523284305,NORTHEAST GEORGIA PHYSICIANS GROUP INC,4754 MARTIN RD,FLOWERY BRANCH,GA,30542-3507,770-965-0847,
275037977664,PHOEBE PUTNEY MEMORIAL HOSPITAL  INC,417 W 3RD AVE,ALBANY,GA,31701-1943,229-312-1000,
392262260593,PCP140334,12540 BROADWELL RD,MILTON,GA,30004-6406,,
378636661666,GWINNETT URGENT CARE,1300 PEACHTREE INDUSTRIAL BOULEVARD,SUWANEE,GA,30024,770-831-5525,URGENT MEDICAL CARE CENTERS AND CLINICS (EXCEPT HOSPITALS)  FREESTANDING
593161897566,SOUTH EASTERN EYE CENTER  OFFICE OF DR NACONDUS GAMBLE,345 LINDQUIST BLG,FT. STEWART,GA,31314,912-876-1101,
138751951929,PCP15977,2896 CHAMBLEE TUCKER RD,CHAMBLEE,GA,30341-4009,770-457-0584,
698355208623,SOUTH HEALTH DISTRICT,206 S PATTERSON ST,VALDOSTA,GA,31601-5668,912-333-5259,
117897713585,OAKHURST MEDICAL CENTERS INC,770 VILLAGE SQ DR,STONE MTN,GA,30083-3380,404-298-7658,
825005274215,APPLECARE,111 COLONIAL WAY,JESUP,GA,31545,912-588-9110,URGENT MEDICAL CARE CENTERS AND CLINICS (EXCEPT HOSPITALS)  FREESTANDING
585788250788,COLUMBUS FOOT CARE ASSOCIATES PC,1900 10TH AVE,COLUMBUS,GA,31901-3600,706-323-6914,
480560453437,ATLANTA ORAL AND FACIAL SURGERY LLC,4749 NELSON BROGDON BLVD,SUGAR HILL,GA,30518-7525,770-932-7726,
922638902364,DORMINY MEDICAL CENTER,200 PERRY HOUSE ROAD  BOX 1447,FITZGERALD,GA,31750,2294247100,Acute Care Hospitals
744391965287,DMC PHYSICIAN GROUP LLC,119 NORMAN DORMING DR,FITZGERALD,GA,31750,229-423-5843,
906840283098,PCP209739,214 TRALEE CIRCLE,FAIRBURN,GA,30213-5112,678-542-7256,
905168958711,IMMEDIATE CARE CENTER OF GEORGIA,190 GREENCASTLE ROAD,TYRONE,GA,30290,770-631-7575,URGENT MEDICAL CARE CENTERS AND CLINICS (EXCEPT HOSPITALS)  FREESTANDING
473152803520,PIEDMONT NEWNAN HOSPITAL  INC,745 POPLAR ROAD,NEWNAN,GA,30265,7704002300,Acute Care Hospitals
182726771818,SOUTHEASTERN REGIONAL MEDICAL CENTER,600 CELEBRATE LIFE PARKWAY,NEWNAN,GA,30265,4048448334,Acute Care Hospitals
514832923856,MEADOWS REGIONAL MEDICAL CENTER,ONE MEADOWS PARKWAY,VIDALIA,GA,30474,9125355828,Acute Care Hospitals
906830273753,EAST GEORGIA HEALTHCARE CENTER  INC.,118 E BROAD ST,MOUNT VERNON,GA,30445-3018,912-583-2277,
334402217786,PCP18437,114 DAVIS RD,MARTINEZ,GA,30907-4352,706-863-4016,
212216802454,PCP2807,77 COLE ST NE,MARIETTA,GA,30060-2030,770-426-6460,
866243490070,INTERNAL MEDICINE ASSOCIATES OF JASPER  PC,684 SIXES RD,HOLLY SPRINGS,GA,30115-8720,678-494-9669,
915290315766,PCP226211,400 CEDAR ST,METTER,GA,30439-3338,,
643228299429,CANDLER COUNTY HOSPITAL,400 CEDAR STREET,METTER,GA,30439,9126855741,Critical Access Hospitals
692525795385,WEST GEORGIA MEDICAL ASSOCIATES,6600 WHITTLESEY BLVD,COLUMBUS,GA,31909-7251,706-323-3491,
823481731245,PHOEBE PHYSICIAN GROUP INC,1904 PALMYRA RD,ALBANY,GA,31701-1575,229-883-0500,
305229334941,ACTION MEDICAL CENTER  LLC,211 BOBBY JONES EXPY,MARTINEZ,GA,30907-5250,706-860-3355,
918376948553,PCP91733,22 W OGLETHORPE ST,ELLAVILLE,GA,31806-3111,,
608450278930,WELLSTAR MEDICAL GROUP  LLC,1790 MULKEY RD,AUSTELL,GA,30106-1122,,
528122379256,PCP16939,10646 B FORD AVE,RICHMOND HILL,GA,31324-3902,912-459-4121,
341364435727,PCP115923,1511 W 3RD AVE,ALBANY,GA,31707-3658,,
183510655586,PCP142048,109 B ALLEN MEMORIAL DR,BREMEN,GA,30110-2009,770-537-4900,
927111571651,DOCTOR OF MEDICINE MINOR EMERGENCY AND FAMILY MEDICINE,209 COOLEY DRIVE,VILLA RICA,GA,30180,770-456-0911,URGENT MEDICAL CARE CENTERS AND CLINICS (EXCEPT HOSPITALS)  FREESTANDING
541555244724,NORTHWEST GEORGIA ONCOLOGY CENTERS  PC,705 DALLAS HWY 203A,VILLA RICA,GA,30180-1243,770-456-3641,
493706793687,TANNER MEDICAL CENTER VILLA RICA,601 DALLAS HIGHWAY,VILLA RICA,GA,30180,7704563101,Acute Care Hospitals
226380969730,PIEDMONT NEWTON HOSPITAL,5126 HOSPITAL DRIVE NE,COVINGTON,GA,30014,7707867053,Acute Care Hospitals
737243615054,PCP108777,15 CLEARBROOK CT,COVINGTON,GA,30016-9146,,
387396779518,PCP120542,1012 S WALL ST,CALHOUN,GA,30701-3066,,
819252199800,PCP174267,300 COURTYARD DR,CARTERSVILLE,GA,30120-8535,,
631897284261,FLOYD URGENT CARE IN CARTERSVILLE,1328 JOE FRANK HARRIS PARKWAY,CARTERSVILLE,GA,30120,770-382-0029,URGENT MEDICAL CARE CENTERS AND CLINICS (EXCEPT HOSPITALS)  FREESTANDING
418952989760,PCP35640,1415 W 3RD AVE,ALBANY,GA,31707-3655,229-432-0282,
135669206348,PCP209569,4306 N PEACHTREE RD,CHAMBLEE,GA,30341-1210,,
156879338767,DOUGLASVILLE EYE CLINIC PC,6001 PROFESSIONAL PKWY,DOUGLASVILLE,GA,30134-5632,678-838-9999,
954319822282,WELLSTAR DOUGLAS HOSPITAL,8954 HOSPITAL DRIVE,DOUGLASVILLE,GA,30134,7709491500,Acute Care Hospitals
263860328531,PCP298559,242 BULLSBORO DR,NEWNAN,GA,30263-1295,,
242822851333,SUMMIT URGENT CARE AND OCCUPATIONAL MEDICINE,1755 EAST STATE HIGHWAY 34,NEWNAN,GA,30265,770-502-2121,URGENT MEDICAL CARE CENTERS AND CLINICS (EXCEPT HOSPITALS)  FREESTANDING
917280985942,ALBANY UROLOGY CLINIC,1950 PALMYRA RD,ALBANY,GA,31701-1575,912-883-1503,
361902881972,EFFINGHAM HEALTH SYSTEM,459 GA HIGHWAY 119 SOUTH,SPRINGFIELD,GA,31329,9127540160,Critical Access Hospitals
433955914394,EFFINGHAM HOSPITAL INC,110 GOSHEN RD,RINCON,GA,31326-5744,912-826-5239,
462870553914,SOUTH GEORGIA RADIOLOGY ASSOCIATES LLC,464 ALTON RD,ODUM,GA,31555-9119,888-545-5551,
198175957685,WAYNE MEMORIAL HOSPITAL,865 SOUTH FIRST STREET,JESUP,GA,31545,9125303302,Acute Care Hospitals
772757215229,CENTER FOR PAN ASIAN COMMUNITY SERVICES  INC.,6185 BUFORD HWY G,PEACHTREE CORNERS,GA,30071-2350,770-446-0929,
838580367114,PCP125131,190 SANDY SPRINGS NEPL,SANDY SPRINGS,GA,30328-5908,,
804784131801,CONCENTRA URGENT CARE - NORCROSS,6475 JIMMY CARTER BOULEVARD,NORCROSS,GA,30071,770-242-7744,URGENT MEDICAL CARE CENTERS AND CLINICS (EXCEPT HOSPITALS)  FREESTANDING
109858691013,PCP263301,425 N COBB ST,MILLEDGEVILLE,GA,31061-2634,,
951166898254,PCP167412,239 ARROWHEAD BLVD,JONESBORO,GA,30236-1101,,
947290841707,Stockbridge VA Clinic,175 Medical Blvd.,Stockbridge,GA,30281,404-329-2222,VA Facility
542642575256,PCP50808,1265 INTERSTATE PKWY,AUGUSTA,GA,30909-6481,706-951-2182,
765649819855,PCP100702,207 EDWARDS PLAZA,ST SIMONS ISLAND,GA,31520-2523,,
379860229200,PCP207844,4310 HARTLEY BRIDGE RD,MACON,GA,31216-5642,,
592214234665,MEMORIAL HOSPITAL AND MANOR,1500 E SHOTWELL STREET,BAINBRIDGE,GA,39819,2292463500,Acute Care Hospitals
485479368239,PCP142852,502 WHEAT AVE,BAINBRIDGE,GA,39819-4325,,
391030391702,ARCHBOLD URGENT CARE CENTER,2705 EAST PINETREE BOULEVARD,THOMASVILLE,GA,31792,229-228-4136,URGENT MEDICAL CARE CENTERS AND CLINICS (EXCEPT HOSPITALS)  FREESTANDING
726433595250,MEMORIAL SATILLA HEALTH,1900 TEBEAU STREET,WAYCROSS,GA,31501,9122872500,Acute Care Hospitals
976706767496,PCP355765,303 DARLING AVE,WAYCROSS,GA,31501-5223,,
383632754619,MONROE COUNTY HOSPITAL,88 MARTIN LUTHER KING JR DRIVE,FORSYTH,GA,31029,4789942521,Critical Access Hospitals
532751346540,GEORGIA DERMATOLOGY AND SKIN CANCER CENTER  LLC,101 MARTIN LUTHER KING JR DR,FORSYTH,GA,31029-1698,478-994-5281,
106469416410,PCP128923,465 WINN WAY,DECATUR,GA,30030-1723,,
468901204329,BERG EYE CENTER  PC,2709 MEREDYTH PLACE,ALBANY,GA,31707,229-432-7012,
897692602727,APOLLOMD GROUP SERVICES  LLC,1170 CLEVELAND AVE,EAST POINT,GA,30344-3615,404-466-1170,
786869252699,CALIFORNIA MANAGED IMAGING MEDICAL GROUP INC,PO BOX,TYBEE ISLAND,GA,31328-2619,888-225-0628,
382377202432,PCP193188,1860 WATSON BLVD,WARNER ROBINS,GA,31093-3439,,
147023651383,PCP168138,611 HOSPITAL RD,COMMERCE,GA,30529-1143,,
268282460667,REGIONAL FIRSTCARE - JEFFERSON,528 PANTHER DRIVE,JEFFERSON,GA,30549,706-387-5555,URGENT MEDICAL CARE CENTERS AND CLINICS (EXCEPT HOSPITALS)  FREESTANDING
470845201716,ST FRANCIS PHYSICIAN PRACTICES LLC,3726 WOODRUFF RD,COLUMBUS,GA,31904-5601,706-257-7680,
783379851535,ATLANTA HEART SPECIALISTS LLC,1468 MONTREAL RD,TUCKER,GA,30084-6902,770-638-1400,
111725148117,PCP151408,4334 ARMOUR RD,COLUMBUS,GA,31904-5322,,
403846484008,PCP124760,5370 HWY 92,FAIRBURN,GA,30213-2296,,
957756148681,PCP173566,2300 MANCHESTER EXPY,COLUMBUS,GA,31904-6807,,
428430741141,WAYNE SJC MEDICAL GROUP  LLC,330 PEACHTREE ST,JESUP,GA,31545-0244,912-427-6915,
749310402932,Hinesville Clinic,500 East Oglethorpe Highway,Hinesville,GA,31313,912-408-2900,VA Facility
537383908945,PCP162256,2801 BUFORD NEHWY T10,BROOKHAVEN,GA,30329-2142,,
815217782551,PIEDMONT HENRY HOSPITAL,1133 EAGLE'S LANDING PARKWAY,STOCKBRIDGE,GA,30281,6786041000,Acute Care Hospitals
551453878294,PCP189844,7823 SPIVEY STATION BLVD,JONESBORO,GA,30236-2886,,
217571923417,BRIGHTPOINT URGENT CARE LIMITED LIABILITY COMPANY,1365 ROCK QUARRY ROAD,STOCKBRIDGE,GA,30281,770-692-5910,URGENT MEDICAL CARE CENTERS AND CLINICS (EXCEPT HOSPITALS)  FREESTANDING
552760807540,MINUTE CLINIC LLC,2324 US HWY 17,RICHMOND,GA,31324-3398,866-389-2727,
428653973551,PCP203859,2295 PARKLAKE NEDR,ATLANTA,GA,30345-2844,770-723-9965,
947382877097,EYE PHYSICIANS AND SURGEONS PC,1457 SCOTT BLVD,DECATUR,GA,30030-1425,404-292-2500,
802577116480,NEXTCARE URGENT CARE - ATLANTA,1220 CAROLINE STREET NORTHEAST,ATLANTA,GA,30307,678-916-3600,URGENT MEDICAL CARE CENTERS AND CLINICS (EXCEPT HOSPITALS)  FREESTANDING
170346519155,MEDICO FAMILIAR INC.,4897 BUFORD HWY NE,CHAMBLEE,GA,30341-3667,770-452-5642,
746831348517,RADIOLOGY ASSOCIATES OF MOULTRIE,3131 S MAIN ST,MOULTRIE,GA,31768-6925,229-985-8802,
659979279336,SUBURBAN WOMEN'S SPECIALISTS  LLC,6300 HOSPITAL PKWY,JOHNS CREEK,GA,30097-1828,770-476-1088,
338616475226,PCP163150,2522 CRUSE RD,LAWRENCEVILLE,GA,30044-2752,,
254689149228,GWINNETT MEDICAL CENTER,1000 MEDICAL CENTER BOULEVARD,LAWRENCEVILLE,GA,30045,6783121000,Acute Care Hospitals
210525641619,PCP137843,1400 BUFORD HWY R6,SUGAR HILL,GA,30518-8777,,
189945922540,THE SOUTHEAST PERMANENTE MEDICAL GROUP,2470 MOUNT ZION PKWY,JONESBORO,GA,30236-2500,770-527-9031,
297234424587,CHILDRENS HEALTHCARE OF ATLANTA - MOUNT ZION IMMEDIATE CARE,2201 MOUNT ZION PARKWAY,MORROW,GA,30260,404-785-8660,URGENT MEDICAL CARE CENTERS AND CLINICS (EXCEPT HOSPITALS)  FREESTANDING
806531155584,SGMP SOUTHLAND,453 B LAKES BLVD,LAKE PARK,GA,31636-6607,229-300-5896,
935872345174,PCP125470,936 S 1ST ST,JESUP,GA,31545-0332,,
276035812109,PCP298316,590 HISTORIC HWY 441 N,DEMOREST,GA,30535,,
100678398579,ADVENTIST HEALTH SYSTEM GEORGIA INC,6000 JOE FRANK HARRIS PKWY,ADAIRSVILLE,GA,30103-2443,770-773-9201,
221824543634,PCP103964,365 GENEVA RD,BUENA VISTA,GA,31803-1701,229-649-2171,
263456735790,PCP102838,825 S 1ST ST,JESUP,GA,31545-0209,,
640890575423,NORTHEAST GEORGIA ANESTHESIA SERVICES INC.,24 AMHERST DR,WINDER,GA,30680-7463,770-868-5644,
401349242980,PCP162871,2189 W PONCE DE LEON,DECATUR,GA,30030-2334,,
306858276809,NORTHEAST GEORGIA PHYSICIANS GROUP INC,12 7TH ST,AUBURN,GA,30011-3202,770-848-9320,
338783872621,PCP162577,271 HWY 74 N,PEACHTREE CITY,GA,30269-1470,,
199574562279,THE NEUROLOGICAL INSTITUTE OF SAVANNAH AND CENTER FOR SPINE P C,370 PEACHTREE ST,JESUP,GA,31545-0244,912-355-1010,
138249327411,PCP27953,220 - C W COLLEGE ST,GRIFFIN,GA,30224-4250,770-228-9317,
196003349025,DOCTORS HOSPITAL,3651 WHEELER ROAD,AUGUSTA,GA,30909,7066516008,Acute Care Hospitals
812556253715,UNIVERSITY HOSPITAL,1350 WALTON WAY,AUGUSTA,GA,30901,7067229011,Acute Care Hospitals
511970811275,PERFECT HEALTH ALWAYS ON CALL. LLC,5060 WRIGHTSBORO RD,GROVETOWN,GA,30813-2842,706-760-7607,
403372607762,PCP127198,1745 OLD SPRING HOUSE LN,DUNWOODY,GA,30338-6216,,
681548778653,MENTAL HEALTH COMPREHENSIVE SERVICES,3103 CLAIRMONT RD NE,BROOKHAVEN,GA,30329-1043,678-302-1945,
577768452091,PCP141729,3485 ATLANTA HWY,FLOWERY BRANCH,GA,30542-2918,,
128006425450,PCP1117,11050 CRABAPPLE RD,ROSWELL,GA,30075-2476,770-992-0300,
765154609592,US HEALTHWORKS MEDICAL GROUP - ROSWELL,900 HOLCOMB BRIDGE ROAD,ROSWELL,GA,30076,770-998-0605,URGENT MEDICAL CARE CENTERS AND CLINICS (EXCEPT HOSPITALS)  FREESTANDING
653573491064,PCP187263,111 LAUREL CREEK RD SE,CALHOUN,GA,30701-7000,,
568591973365,PCP160553,38 HOSPITAL RD A,NEWNAN,GA,30263-1277,,
787994465012,PCP93767,2039 10TH AVE,COLUMBUS,GA,31901-1459,,
860028502369,HOUSTON HOSPITALS INC,1601 WATSON BLVD,WARNER ROBBINS,GA,31093-3452,478-922-4281,
815194588657,Perry Outreach Clinic,2370 S. Houston Lake Road,Kathleen,GA,31047,478-224-1309,VA Facility
522860539694,EMERGENCY CARE AT LAKE JOY,1118 STATE HIGHWAY 96,KATHLEEN,GA,31047,478-987-0323,URGENT MEDICAL CARE CENTERS AND CLINICS (EXCEPT HOSPITALS)  FREESTANDING
481833459516,HOSPITAL AUTHORITY OF WAYNE COUNTY GEORGIA,865 S 1ST ST,JESUP,GA,31545-0210,912-427-6811,
503101497951,ALLEGIANCE IMAGING AND RADIOLOGY LLC,900 THORNTON RD,LITHIA SPRINGS,GA,30122-2641,404-937-3046,
663517186542,ORMSBY HEALTHCARE  LLC,6624 JIMMY CARTER BLVD,PEACHTREE CORNERS,GA,30071-1727,770-743-0004,
854243478059,SOUTHEASTERN PATHOLOGY ASSOCIATES PC,2000 DAN PROCTOR DR,SAINT MARYS,GA,31558-3810,912-576-6200,
757866227762,PCP232140,2101 NEWNAN CROSSING BLVD E,NEWNAN,GA,30265-2406,,
832065904127,URGENT MD HEALTHCARE SERVICES  P.C.,2258 WRIGHTSBORO RD,AUGUSTA,GA,30904-4788,706-922-6300,
188415186574,PCP342119,4700 BATTLEFIELD PKWY,RINGGOLD,GA,30736-5172,,
853457263603,PRIORITY CARE,1000 RIVERBURCH PARKWAY,DALTON,GA,30721,706-226-8148,URGENT MEDICAL CARE CENTERS AND CLINICS (EXCEPT HOSPITALS)  FREESTANDING
988771137850,EVANS MEMORIAL HOSPITAL,200 N RIVER STREET,CLAXTON,GA,30417,9127395105,Acute Care Hospitals
397668427885,PCP107211,200 N RIVER ST,CLAXTON,GA,30417-1659,,
923805817901,EAST GEORGIA URGENT CARE,4451 COUNTRY CLUB ROAD,STATESBORO,GA,30458,912-764-2273,URGENT MEDICAL CARE CENTERS AND CLINICS (EXCEPT HOSPITALS)  FREESTANDING
552849483871,ST FRANCIS PHYSICIAN PRACTICES LLC,610 19TH ST,COLUMBUS,GA,31901-1528,706-322-7884,
370154861257,POST-ACUTE PHYSICIANS OF GEORGIA PC,450 N CANDLER ST,DECATUR,GA,30030-2626,404-501-7534,
802002238802,NEWNAN VASCULAR CENTER  LLC,2690 HWY 34 E,NEWNAN,GA,30265-1330,678-423-4100,
892544777841,PCP350251,3459 ACWORTH DUE W RD,ACWORTH,GA,30101-5824,,
239032234087,TLC OF GEORGIA LLC,1751 NEWNAN CROSSING BLVD E,NEWNAN,GA,30265-1517,678-423-5854,
544878295025,PCP130775,807 RALPH DAVID ABERNATHY BLVD,ATLANTA,GA,30310-1807,,
417548572892,COMMUNITY HEALTH CARE SYSTEMS  INC.,2251 W ELM ST,WRIGHTSVILLE,GA,31096-2017,478-864-2600,
673170961192,PCP254377,106 MCCRARY AVE,ROBERTA,GA,31078-4916,,
332332222136,UPSON REGIONAL MEDICAL CENTER,801 W GORDON STREET,THOMASTON,GA,30286,7066478111,Acute Care Hospitals
657281311111,INDEPENDENT PHYSICAL THERAPY OF GA  LLC,1615 STATE HWY 17 9,YOUNG HARRIS,GA,30582-1880,706-896-2771,
463760431005,UNION GENERAL HOSPITAL,35 HOSPITAL ROAD,BLAIRSVILLE,GA,30512,7067452111,Acute Care Hospitals
132942934632,DIGESTIVE CARE PHYSICIANS  LLC,6300 HOSPITAL PKWY,JOHNS CREEK,GA,30097-1984,770-227-2222,
361174118553,PHOEBE PHYSICIAN GROUP INC,425 W 3RD AVE,ALBANY,GA,31701-1969,,
798714564819,PCP165434,1918 HWY 74,TYRONE,GA,30290-1604,,
423399543821,UNIVERSITY CANCER AND BLOOD CENTER  LLC,30 SATELLITE DR,WINDER,GA,30680-6211,770-586-0300,
323798967036,PCP26465,2278 MOODY RD,WARNER ROBINS,GA,31088-1933,478-929-0294,
711669438346,ANTIA'S TENDER TOUCH LLC,9434 S MAIN ST,JONESBORO,GA,30236-8722,770-731-0495,
249618309109,PCP266602,1902 MACY DR,ROSWELL,GA,30076-6339,,
856710610869,Henderson Mill VA Clinic,2296 Henderson Mill Road,Atlanta,GA,30345,,VA Facility
980433215228,ADVANCED MEDICAL RESOURCES OF WAYNE COUNTY  LLC,865 S 1ST ST,JESUP,GA,31545-0210,912-657-4217,
753711410820,PCP132790,347 RESOURCE PKWY,WINDER,GA,30680-8364,,
357426826309,HOUSTON HOSPITALS INC,2510 HWY 127,KATHLEEN,GA,31047,478-922-4281,
282831628186,LOS ROBLES RADIOLOGIC ASSOCIATES,8 SANDLEWOOD CT,TYBEE ISLAND,GA,31328-3217,888-225-0628,
257389584165,ATLANTA CENTER FOR DERMATOLOGIC DISEASES PC,1265 UPPER HEMBREE RD,ROSWELL,GA,30076-1258,770-751-1133,
190477294596,PCP353975,7300 LESTER RD,UNION CITY,GA,30291-2328,,
172905374336,PCP139891,1111 N MAIN ST,PEARSON,GA,31642,912-422-7073,
373073648906,APPLING HOSPITAL,163 E TOLLISON STREET,BAXLEY,GA,31513,9123679841,Acute Care Hospitals
879989552743,PCP162968,255 NORCROSS ST B,ROSWELL,GA,30075-3865,,
630067850065,PCP313947,1305 HEMBREE ROAD,ROSWELL,GA,30076-3810,,
626521229055,CHILDRENS HEALTHCARE OF ATLANTA - NORTH POINT,3795 MANSELL ROAD,ALPHARETTA,GA,30022,404-785-8540,URGENT MEDICAL CARE CENTERS AND CLINICS (EXCEPT HOSPITALS)  FREESTANDING
100759910214,WELLSTAR MEDICAL GROUP  LLC,2000 BILLY TUCKER CIR,HOGANSVILLE,GA,30230-2793,706-880-7222,
731370720763,CENTRAL GEORGIA GASTROENTEROLOGY  LLC,791 POPLAR ST,MACON,GA,31201-2045,478-755-0800,
772502419943,PCP166631,2010 MOUNT ZION RD C,MORROW,GA,30260-3327,,
654586195378,WASHINGTON COUNTY REGIONAL MEDICAL CENTER,610 SPARTA RD,SANDERSVILLE,GA,31082-1860,478-552-3901,
780861147706,MCINTOSH TRAIL COMMUNITY SERVICE BOARD,700 HWY 314 S,BANESVILLE,GA,30204,770-358-5252,
114796445894,SUMMERVILLE WOMEN'S MEDICAL GROUP,2300 WRIGHTSBORO RD,AUGUSTA,GA,30904-6220,706-737-3948,
262184326978,GASTROINTESTINAL SPECIALIST OF GEORGIA,880 CRESTMARK DR,LITHIA SPRINGS,GA,30122-2646,678-741-5000,
241072631745,EAST ATHENS PHYSICAL THERAPY,665 GAINES SCHOOL RD,ATHENS,GA,30605-3127,706-369-8115,
614475607324,HARBIN CLINIC  LLC,330 TURNER MCCALL BLVD,ROME,GA,30165-5616,706-291-1754,
605623896672,PCP99689,242 CREEKSTONE RDG,WOODSTOCK,GA,30188-3732,,
221230853330,WELLSTAR MEDICAL GROUP  LLC,1000 CORPORATE CTR DR,MORROW,GA,30260-4129,770-968-6464,
417066266936,AFC PHYSICIANS OF GEORGIA PC,12994 HWY 9,MILTON,GA,30004-3609,678-205-8155,
122470927275,PCP174646,4948 GUMLOG RD,MARTIN,GA,30557-2921,706-356-1111,
849797465349,ST MARY'S SACRED HEART HOSPITAL  INC,367 CLEAR CREEK PARKWAY,LAVONIA,GA,30553,7063567800,Acute Care Hospitals
695208532475,PCP103500,211 S ERWIN ST,CARTERSVILLE,GA,30120-3513,,
419064578834,PCP28810,1864 INDEPENDENCE SQ,DUNWOODY,GA,30338-5160,770-668-0350,
309056380580,PRIMARY HEALTH CARE CENTER OF DADE  INC.,134 RHEA MCCLANAHAN DR,TUNNEL HILL,GA,30755-7328,706-516-1814,
917210616002,HAMILTON MEDICAL CENTER,1200 MEMORIAL DRIVE,DALTON,GA,30720,7062726105,Acute Care Hospitals
188928238910,PCP122418,5755 N POINT PKWY,ALPHARETTA,GA,30022-1150,,
374172969571,PCP211901,1675 HERAEUS BLVD,BUFORD,GA,30518-3383,,
155301996074,PHYSICIANS IMMEDIATE MED,3425 BUFORD DRIVE,BUFORD,GA,30519,678-546-0200,URGENT MEDICAL CARE CENTERS AND CLINICS (EXCEPT HOSPITALS)  FREESTANDING
477204981671,PCP142487,720 HOLCOMB BRIDGE RD,NORCROSS,GA,30071-1325,,
830925641497,PCP245561,5900 SPOUT SPRINGS RD,FLOWERY BRANCH,GA,30542-6448,,
631600763030,PCP154416,410 CONNELL RD,VALDOSTA,GA,31602-1898,,
793189147493,WELLSTAR MEDICAL GROUP  LLC,240 N HIGHLAND AVE NE,ATLANTA,GA,30307-5627,404-524-2424,
706092805378,NORTHEAST GEORGIA ANESTHESIA SERVICES INC.,1008 PROFESSIONAL BLVD,DALTON,GA,30720-2554,706-281-2121,
256823602751,PCP348474,907 18TH E ST,TIFTON,GA,31794-3600,,
133323243332,TIFT REGIONAL MEDICAL CENTER,901 E 18TH STREET,TIFTON,GA,31793,2293827120,Acute Care Hospitals
621281643466,AU MEDICAL ASSOCIATES,997 SAINT SEBASTIAN WAY,AUGUSTA,GA,30912-2613,706-721-6602,
701178315328,CENTER FOR PRIMARY CARE  P.C.,4039 GATEWAY BLVD,GROVETOWN,GA,30813-3195,706-922-1600,
991770241465,WELLSTAR PAULDING HOSPITAL,2518 JIMMY LEE SMITH PARKWAY,HIRAM,GA,30141,4706447000,Acute Care Hospitals
969178945739,WELLSTAR MEDICAL GROUP  LLC,51 HIRAM DR B,HIRAM,GA,30141-1844,678-945-8345,
262746678298,PHYSICIANS IMMEDIATE MED,3827 JIMMY LEE SMITH PARKWAY,HIRAM,GA,30141,770-222-8900,URGENT MEDICAL CARE CENTERS AND CLINICS (EXCEPT HOSPITALS)  FREESTANDING
837517861252,NORTHEAST GEORGIA PHYSICIANS GROUP INC,3931 MUNDY MILL RD A,OAKWOOD,GA,30566-3431,770-503-1481,
805614951999,HOSPITAL AUTHORITY OF LIBERTY,462 E G MILES PKWY,HINESVILLE,GA,31313-4000,912-369-9400,
590838835296,PCP358242,316 N BROAD ST,WINDER,GA,30680-2150,,
961891543323,PRO RADIOLOGY  LLC,3921 JOHNS CREEK CT,SUWANEE,GA,30024-1252,770-217-1741,
385472178323,PCP138584,4675 SHALLOWFORD RD,DUNWOODY,GA,30338-6309,,
485728996727,PREMIER IMMEDIATE CARE,2696 LAWRENCEVILLE SUWANEE ROAD,SUWANEE,GA,30024,678-376-1300,URGENT MEDICAL CARE CENTERS AND CLINICS (EXCEPT HOSPITALS)  FREESTANDING
172116145073,PCP97901,2483 DEMERE RD,ST SIMONS ISLAND,GA,31522-1673,,
497662879755,PCP134609,5070 PEACHTREE BLVD,CHAMBLEE,GA,30341-3010,,
159138329585,PCP93941,3507 MANCHESTER EXPY,COLUMBUS,GA,31909-6441,,
325651492891,INDEPENDENT PHYSICAL THERAPY OF GA  LLC,1394 BATTLEFIELD PKWY,FT OGLETHORPE,GA,30742-4010,706-858-0252,
608347299562,PCP159126,5820 OLD NATIONAL HWY,COLLEGE PARK,GA,30349-3838,,
456726872373,N.D. LIEN  P.C.,1029 CLEVELAND AVE,EAST POINT,GA,30344-6719,404-766-4633,
218661488111,PCP224119,1445 GEORGIA AVE,MACON,GA,31201-7610,,
671059476481,PCP85921,5680 PEACHTREE PKWY,PEACHTREE CORNERS,GA,30092-2860,,
200803975406,PCP185907,1500 JUNEAU WAY,GRAYSON,GA,30017-2962,,
405382717895,AMERICAN EYECARE CENTER OF JESUP INC.,3407 FREDERICA RD,SAINT SIMONS ISLAND,GA,31522-1556,912-634-3400,
918764882083,HERITAGE VISION CENTER  INC.,2427 HERITAGE VLG,SNELLVILLE,GA,30078-2699,770-978-2020,
369243325766,AU DENTAL ASSOCIATES,1430 JOHN WESLEY GILBERT DR,AUGUSTA,GA,30912-1001,706-721-9633,
749841973678,PCP128446,5401 FAIRINGTON RD,LITHONIA,GA,30038-5113,,
428012442921,AGA  LLC,226 E COLLEGE ST,GRIFFIN,GA,30224-4348,678-987-1490,
411832528472,PAIN CARE LLC,1240 HWY 54 W,FAYETTEVILLE,GA,30214-4562,770-771-6580,
621034552906,PCP141539,230 E AVE,CEDARTOWN,GA,30125-3002,,
775330741844,POLK MEDICAL CENTER,2360 ROCKMART HIGHWAY,CEDARTOWN,GA,30125,7707482500,Critical Access Hospitals
426577487469,PCP95839,900 1ST ST,MACON,GA,31201-6806,,
831582883673,CONCENTRA URGENT CARE - AIRPORT NORTH,3580 ATLANTA AVENUE,HAPEVILLE,GA,30354,404-768-3351,URGENT MEDICAL CARE CENTERS AND CLINICS (EXCEPT HOSPITALS)  FREESTANDING
486926359624,PCP66775,528 S 8TH ST,GRIFFIN,GA,30224-4212,770-467-1224,
836453522840,PCP167914,935 QUEENSBROOKE WAY,MABLETON,GA,30126-6413,,
953440249073,IMAGING ASSOCIATES OF GEORGIA LLC,316 N BROAD ST,WINDER,GA,30680-2150,770-867-3400,
594260563678,MITCHELL COUNTY HOSPITAL,90 STEPHENS STREET,CAMILLA,GA,31730,2293365284,Critical Access Hospitals
818895418373,CCSG  INC,259 US HWY 19 N,CAMILLA,GA,31730-1410,229-584-5400,
610480148524,GEORGIA MOUNTAINS COMMUNITY SERVICES,4331 THURMON TANNER RD,FLOWERY BRANCH,GA,30542-2829,678-513-5700,
517957124840,PCP148495,3045 CAMP BRANCH RD,BUFORD,GA,30519-4460,,
916824616709,COMMUNITY CARE TUCKER,5019 LAVISTA ROAD,TUCKER,GA,30084,678-720-0422,URGENT MEDICAL CARE CENTERS AND CLINICS (EXCEPT HOSPITALS)  FREESTANDING
718337482632,GREENING MEDICAL INC,7285 HWY 16,SENOIA,GA,30276-3348,770-599-0505,
487211705178,Newnan VA Clinic,39-A Oak Hill Ct.,Newnan,GA,30265,404-329-2222,VA Facility
192605995631,PCP93683,165 BURKE ST,STOCKBRIDGE,GA,30281-3464,,
938376217209,PCP211633,6335 HOSPITAL PKWY,JOHNS CREEK,GA,30097-1550,,
173422311979,SOUTHEASTERN ORAL AND MAXILLOFACIAL SURGICAL ASSOCIATES P.C.,4815 PAULSEN ST,SAVANNAH,GA,31405-4418,912-352-2324,
463068953838,FLOYD HEALTHCARE MANAGEMENT INC,205 E 1ST AVE,ROME,GA,30161-3213,706-509-3462,
483968197376,TANNER MEDICAL GROUP INC,690 DALLAS HWY 102,VILLA RICA,GA,30180-1264,770-812-3515,
358679366558,PCP143991,125 PLANTATION CENTRE S DR,MACON,GA,31210-2093,,
272613956593,Macon Vet Center,750 Riverside Drive,Macon,GA,31201,478-477-3813 Or 877-927-8387,VA Facility
588199333167,PCP95424,1 HUNTINGTON RD,ATHENS,GA,30606-7206,,
314785845274,RADIOLOGY ASSOCIATES OF MACON PC,350 HOSPITAL DR,MACON,GA,31217-3838,478-765-7000,
439382712488,PCP212828,20 HERRELL RD,VILLA RICA,GA,30180-5527,,
462562615536,CHATHAM SKIN AND CANCER CENTER,1000 TOWNE CTR BLVD,POOLER,GA,31322-4052,912-354-7124,
161037520081,HOSPITAL AUTHORITY OF THE CITY OF BAINBRIDGE AND DECATUR COUNTY GEORGI,1500 E SHOTWELL ST,BAINBRIDGE,GA,39819-4256,229-246-3500,
795852754049,PCP245077,6413 WATERS AVE,SAVANNAH,GA,31406-2711,,
703412949881,ATLANTA ALLERGY AND OTOLARYNGOLOGY CENTER  LLC,2726 LAWRENCEVILLE HWY,DECATUR,GA,30033-2512,678-689-1100,
491331477882,TRINITY PAIN RELIEF CENTER LLC,9434 S MAIN ST,JONESBORO,GA,30236-6092,770-478-1300,
683188234212,PCP4954,577 WALNUT ST,MACON,GA,31201-8211,478-474-2344,
959180600137,THE LONGSTREET CLINIC  PC,725 JESSE JEWELL PKWY,GAINESVILEL,GA,30501-3834,770-297-5700,
229634499962,GUILFORD IMMEDIATE CARE,1250 JESSE JEWELL PARKWAY,GAINESVILLE,GA,30501,770-532-0800,URGENT MEDICAL CARE CENTERS AND CLINICS (EXCEPT HOSPITALS)  FREESTANDING
727432231557,PCP238322,3646 CHAMBLEE TUCKER RD D,CHAMBLEE,GA,30341-4406,,
451859919056,MONROE HMA PHYSICIAN MANAGEMENT LLC,2161 W SPRING ST,MONROE,GA,30655-3115,,
436043185151,PHOEBE PHYSICIAN GROUP INC,2709 MEREDYTH DR,ALBANY,GA,31707-0213,229-312-9651,
683113801687,BOULEVARD FAMILY PRACTICE,1010 PRINCE AVE,ATHENS,GA,30606-5815,706-850-6134,
481091260044,EMERGENCY PHYSICIANS OF FORSYTH  PC,88 MARTIN LUTHER KING JR DR,FORSYTH,GA,31029-1682,478-994-2521,
487952923859,CENTRAL GEORGIA INFECTIOUS DISEASES ASSOCIATES  LLC,400 CHARTER BLVD,MACON,GA,31210-4831,478-741-5945,
463220159480,UROLOGY GROUP OF ATHENS  P.C.,1500 OGLETHORPE AVE,ATHENS,GA,30606-2188,706-850-4355,
637927504896,PCP3644,144 PIERCE AVE,MACON,GA,31204-2860,478-475-4608,
904278431966,PCP15786,2593 CANTON RD,MARRETTA,GA,30066-5390,770-424-9555,
873968516784,PCP184733,305 BELMONT CHASE CT,ALPHARETTA,GA,30005-7884,,
961463335587,PHYSICIANS IMMEDIATE MED,10905 HAYNES BRIDGE ROAD,ALPHARETTA,GA,30022,770-505-3000,URGENT MEDICAL CARE CENTERS AND CLINICS (EXCEPT HOSPITALS)  FREESTANDING
962766629269,SIDNEY P SMITH MD PC,9665 FORD AVE,RICHMOND HILL,GA,31324-3652,912-756-4722,
809527256360,RIVER CITY VASCULAR SPECIALISTS,1920 WARMSPRINGS RD,COLUMBUS,GA,31904,706-984-7000,
903219366657,THE HEMLOCK PAIN CENTER  LLC.,777 HEMLOCK ST,MACON,GA,31201-2102,478-663-1000,
473938775840,THE MEDICAL CENTER OF ELBERTON  LLP,109 COLLEGE AVE,ELBERTON,GA,30635-1705,706-283-3315,
776580671281,ELBERT MEMORIAL HOSPITAL,4 MEDICAL DRIVE,ELBERTON,GA,30635,7062132535,Acute Care Hospitals
628311332242,REDDY MEDICAL GROUP - DANIELSVILLE,280 GENERAL DANIELS AVENUE,DANIELSVILLE,GA,30633,706-795-2211,URGENT MEDICAL CARE CENTERS AND CLINICS (EXCEPT HOSPITALS)  FREESTANDING
595409821708,PCP20157,1727 HWY 42 N,MCDONOUGH,GA,30253-4725,770-898-3670,
608643936541,PCP96717,139 E BROAD,NORMAN PARK,GA,31771-5085,,
330325125463,COLQUITT REGIONAL MEDICAL CENTER,3131 THOMASVILLE HWY BOX 40,MOULTRIE,GA,31768,2299853420,Acute Care Hospitals
346250862911,RADIATION ONCOLOGISTS SOUTH EAST  P.C.,919 S BROAD ST,THOMASVILLE,GA,31792-6114,229-228-2982,
485109774640,GWINNETT CLINIC LTD,475 PHILIP BLVD,LAWRENCEVILLE,GA,30046-8736,770-995-3300,
232637322955,PCP91919,2316 WRIGHTSBORO RD,AUGUSTA,GA,30904-6220,706-733-3406,
797086309845,DEWITT AND CHISOLM  LLC,1500 OGLETHORPE AVE,ATHENS,GA,30606-2190,706-208-1406,
876301467072,WELLSTAR MEDICAL GROUP  LLC,1136 CLEVELAND AVE,EAST POINT,GA,30344-3618,,
497264959397,CAMP CREEK URGENT AND FAMILY CARE CENTER,3885 PRINCETON LAKES WAY,ATLANTA,GA,30331,404-629-9495,URGENT MEDICAL CARE CENTERS AND CLINICS (EXCEPT HOSPITALS)  FREESTANDING
508533241567,PCP199619,6567 PROFESSIONAL PL,RIVERDALE,GA,30274-2519,,
852503701175,THE WOMEN'S HEALTH INSTITUTE OF MACON  PC,4050 RIVERSIDE DR,MACON,GA,31210-1805,478-746-2888,
500789872608,AEGIS GROUP PRACTICE LLC,2270 LOGANVILLE HWY,GRAYSON,GA,30017-1623,800-444-6845,
363093869142,PCP220657,4015 S COBB DR,SMYRNA,GA,30080-6315,,
226812975385,NEW LONDON ANESTHESIA AND PAIN CONSULTANTS  P.C.,1700 MEDICAL WAY,SNELLVILLE,GA,30078-2195,770-979-0200,
722293269898,UNIFIED WOMEN'S CARE OF GEORGIA LLC,1525 CHATTANOOGA RD,DALTON,GA,30720-8379,706-226-3373,
832083324239,THE SOUTHEAST PERMANENTE MEDICAL GROUP,684 SIXES RD,HOLLY SPRINGS,GA,30115-8723,404-379-1105,
664821772107,NORTHSIDE HOSPITAL CHEROKEE,450 NORTHSIDE CHEROKEE BOULEVARD,CANTON,GA,30115,7702441000,Acute Care Hospitals
394885626282,MEDICAL ASSOCIATES OF NORTHERN GEORGIA,320 HOSPITAL ROAD,CANTON,GA,30114,770-479-5535,URGENT MEDICAL CARE CENTERS AND CLINICS (EXCEPT HOSPITALS)  FREESTANDING
472740273512,THE PRIMARY CARE CENTER,2891-C NORTH DECATUR ROAD,DECATUR,GA,30033,404-325-9600,URGENT MEDICAL CARE CENTERS AND CLINICS (EXCEPT HOSPITALS)  FREESTANDING
391474741344,A. KEITH MARTIN  M.D.  P.C.,330 HOSPITAL DR,MACON,GA,31217-8042,478-750-8606,
307238245330,PCP144359,51 HOSPITAL RD,NEWNAN,GA,30263-1209,,
557454378366,TOCO HILLS URGENT CARE,1276 MCCONNELL DRIVE,DECATUR,GA,30033,404-325-2100,URGENT MEDICAL CARE CENTERS AND CLINICS (EXCEPT HOSPITALS)  FREESTANDING
692379587452,MADISON MEDICAL ASSOCIATES  PC,1550 EATONTON RD,MADISON,GA,30650-4627,706-752-0322,
387094586012,MORGAN MEMORIAL HOSPITAL,1077 SOUTH MAIN STREET,MADISON,GA,30650,7063421667,Critical Access Hospitals
489155788896,REGIONAL FIRSTCARE - WATKINSVILLE,1010 VILLAGE DRIVE,WATKINSVILLE,GA,30677,706-769-0000,URGENT MEDICAL CARE CENTERS AND CLINICS (EXCEPT HOSPITALS)  FREESTANDING
708673702644,MEMORIAL HEALTH PARTNERS FOUNDATION  INC,101 KINGTON LN,CHICKAMAUGA,GA,30707-1991,706-375-9400,
631734831217,PEACHTREE IMMEDIATE CARE,1275 STATE HIGHWAY 54 WEST,FAYETTEVILLE,GA,30214,770-461-3776,URGENT MEDICAL CARE CENTERS AND CLINICS (EXCEPT HOSPITALS)  FREESTANDING
840110586098,WELLSTAR MEDICAL GROUP  LLC,211 E BROAD ST,PINE MOUNTAIN,GA,31822-7700,706-880-7222,
867083608765,TURNING POINT HOSPITAL,3015 VETERANS PARKWAY,MOULTRIE,GA,31788,2299854815,Acute Care Hospitals
845420245366,PCP105492,423 BARROW AVE SW,PELHAM,GA,31779-2131,,
428901729252,PCP70792,14 EASTBROOK BND,PEACHTREE CITY,GA,30269-1530,770-487-2289,
286405486322,GEORGIA PAIN INSTITUTE. LLC,3356 VINEVILLE AVE,MACON,GA,31204-2328,478-476-9642,
768256138862,PCP173868,11 UPPER RIVERDALE RD,RIVERDALE,GA,30274-2600,,
885171644898,CONCENTRA URGENT CARE - AIRPORT S,5044 CLARK HOWELL HIGHWAY,ATLANTA,GA,30349,404-765-2400,URGENT MEDICAL CARE CENTERS AND CLINICS (EXCEPT HOSPITALS)  FREESTANDING
762356336668,GEORGIA SPINE AND ORTHOPEDICS  LLC,6501 PEAKE RD,MACON,GA,31210-8046,478-508-1336,
629109997029,PAYNE AND PAYNE  PC,9995 JONES BRIDGE RD,ALPHARETTA,GA,30022-6519,770-475-1242,
902000838821,PCP717,501 BLACKBURN DR,MARTINEZ,GA,30907-8201,706-854-8340,
270993580255,NEUROLOGY ASSOCIATES LLP,389 MULBERRY ST,MACON,GA,31201-7917,912-743-9123,
253209395838,PROVIDENCE FAMILY MEDICINE CLINIC  INC,1787 BROAD ST,LUMPKIN,GA,31815-3045,703-593-6154,
916171496766,INDEPENDENT PHYSICAL THERAPY OF GA  LLC,7938 GA HWY 21,PORT WENTWORTH,GA,31407-9808,912-965-0601,
370976617500,HEALTH SERVICES OF CENTRAL GEORGIA,4075 ELNORA DR,MACON,GA,31210-1822,478-757-7888,
167002822606,PCP148783,8495 DUNWOODY PL,ATLANTA,GA,30350-3320,,
544414108781,FAMILY PRACTICE MEDICINE CENTER,2480 WINDY HILL ROAD SOUTHEAST,MARIETTA,GA,30067,770-952-4456,URGENT MEDICAL CARE CENTERS AND CLINICS (EXCEPT HOSPITALS)  FREESTANDING
915317283027,PCP260722,2400 NORTHSIDE XING,MACON,GA,31210-2252,,
662374122802,PCP358477,305 S WASHINGTON ST,FORT GAINES,GA,39851-4315,,
527811714399,PCP192889,3642 WHEELER RD,AUGUSTA,GA,30909-6519,,
328324820636,ADVANTAGE BEHAVIORAL HEALTH SYSTEMS,1731 MERIWEATHER DR,BOGART,GA,30622-3068,706-542-9746,
583379655406,EAR  NOSE AND THROAT ASSOCIATES OF SAVANNAH  P.C.,1000 TOWNE CTR BLVD,POOLER,GA,31322-4059,912-330-8075,
214015875626,THE FOOT AND ANKLE GROUP PC,4434 COLUMBIA RD,MARTINEZ,GA,30907-4563,706-724-7000,
477807283910,URGENT MD,3642 WHEELER ROAD,AUGUSTA,GA,30909,706-922-6300,URGENT MEDICAL CARE CENTERS AND CLINICS (EXCEPT HOSPITALS)  FREESTANDING
509125870185,COUNSELING PSYCHOLOGY ASSOCIATES,1304 15TH ST,COLUMBUS,GA,31901-2241,706-653-2221,
147779513230,THE CORPORATION OF MERCER UNIVERSITY,655 1ST ST,MACON,GA,31201-2852,478-475-1299,
161634155714,THE CORPORATION OF MERCER UNIVERSITY,400 CHARTER BLVD,MACON,GA,31210-4831,478-757-6080,
926812764101,RUTLAND IMMEDIATE CARE CENTER,4226 HARTLEY BRIDGE ROAD,MACON,GA,31216,478-781-5065,URGENT MEDICAL CARE CENTERS AND CLINICS (EXCEPT HOSPITALS)  FREESTANDING
894430229042,PCP141392,24 GLENDALE AVE K,BAXLEY,GA,31513-0245,,
994343608900,PCP133691,11500 WEBB BRIDGE WAY,ALPHARETTA,GA,30005-2046,,
232569641919,PCP15737,4687 ATLANTA RD SE,VININGS,GA,30339-1501,404-794-4357,
270557735778,INTENSIVE CARE CONSORTIUM INC,350 HOSPITAL DR,MACON,GA,31217-3838,561-642-3094,
916257860837,RENAL PHYSICIANS OF GEORGIA PC,165 EMERY HWY,MACON,GA,31217-3613,478-741-2150,
209291670471,PCP24672,112 N WASHINGTON ST,LYONS,GA,30436-1179,912-526-6479,
938743354134,UNIVERSITY HOSPITAL MEDICAL CENTER - COLUMBIA COUNTY,4106 COLUMBIA ROAD,AUGUSTA,GA,30907,706-868-3220,URGENT MEDICAL CARE CENTERS AND CLINICS (EXCEPT HOSPITALS)  FREESTANDING
376481607093,PCP151828,3339 HWY 34 E,SHARPSBURG,GA,30277-3565,,
838906248796,COOK  MEDICAL CENTER  A CAMPUS OF TIFT REG MED CTR,706 N PARRISH AVE,ADEL,GA,31620,2298968077,Acute Care Hospitals
873025753217,PCP202601,707 N PARRISH AVE,ADEL,GA,31620-1521,,
408567523112,HIGHLAND URGENT CARE AND FAMILY MEDICINE,920 PONCE DE LEON AVENUE NORTHEAST,ATLANTA,GA,30306,404-815-1957,URGENT MEDICAL CARE CENTERS AND CLINICS (EXCEPT HOSPITALS)  FREESTANDING
175594808797,SOUND PHYSICIANS OF GEORGIA III  PC,1170 CLEVELAND AVE,EAST POINT,GA,30344-3615,404-466-1170,
105366113151,LOUISVILLE RADIOLOGY IMAGING CONSULTANTS  PLLC,710 CTR ST,COLUMBUS,GA,31901-1527,708-915-5671,
815896867527,PCP125663,1035 RED BUD NERD,CALHOUN,GA,30701-2082,,
990931676185,PCP91857,300 W 4TH ST,WAYNESBORO,GA,30830-1511,,
508173619023,BURKE MEDICAL CENTER,351 SOUTH LIBERTY STREET,WAYNESBORO,GA,30830,7065544435,Acute Care Hospitals
874623580863,NEUROLOGICAL ASSSOCIATE OF AUGUSTA  PC,1210 ROY RD,AUGUSTA,GA,30909-1812,706-860-6515,
940321593336,DOMINION ORTHOPAEDIC CLINIC  LLC,4235 JOHNS CREEK PKWY B,SUWANEE,GA,30024-6038,770-455-4009,
758955501217,BOHLER FAMILY PRACTICE PC,128 N PARKER AVE,BROOKLET,GA,30415-6291,912-842-2101,
140116980746,NORTHSIDE SURGICAL PROFESSIONAL SERVICES LLC,980 JOHNSON FERRY RD,ATLANTA,GA,30342-1609,,
363215634887,MILL CREEK FAMILY AND URGENT CARE,7820 HICKORY FLAT HIGHWAY,WOODSTOCK,GA,30188,770-704-4911,URGENT MEDICAL CARE CENTERS AND CLINICS (EXCEPT HOSPITALS)  FREESTANDING
381178451633,COLUMBUS AMBULATORY HEALTHCARE SERVICES  INC.,2737 WARM SPRINGS RD,COLUMBUS,GA,31904-5328,,
972428513425,RADIOLOGY ASSOCIATES OF DEKALB PC,2701 N DECATUR RD,DECATUR,GA,30033-5918,404-501-1000,
493949547944,OCONEE MEDICAL GROUP,1440 N CHASE ST,ATHENS,GA,30601-1850,706-227-2110,
400872261406,PASTORAL INSTITUTE  INC,2022 15TH AVE,COLUMBUS,GA,31901-1608,706-649-6500,
416175493291,ORAL SURGERY ASSOCIATES AND DENTAL IMPLANT CENTER PC,7135 FLOYD NEST,COVINGTON,GA,30014-1578,770-787-2444,
877683336230,THE ENT CENTER OF CENTRAL GEORGIA  PC,540 HEMLOCK ST,MACON,GA,31201-3202,912-743-8953,
690304471003,SOUTH ATLANTA PULMONARY GROUP,1136 CLEVELAND AVE,EAST POINT,GA,30344-3608,404-761-3525,
654578566655,PCP14711,104 MIRRAMONT LAKE DR,WOODSTOCK,GA,30189-8213,770-517-5610,
481930994064,BACON COUNTY HEALTH SERVICES  INC.,302 S WAYNE ST,ALMA,GA,31510-0987,912-632-8961,
108288363821,LOUISVILLE RADIOLOGY IMAGING CONSULTANTS  PLLC,15430 LITTLE STONE WAY,MILTON,GA,30004-6900,708-915-5656,
424347375080,INDEPENDENT PHYSICAL THERAPY OF GA  LLC,705 TOWN BLVD NE,BROOKHAVEN,GA,30319-7216,404-869-1912,
781462856471,HORIZON BEHAVIORAL HEALTH  P.C.,8400 ABERCORN ST,SAVANNAH,GA,31406-3425,912-785-2100,
749737562135,PIEDMONT CARDIOLOGY OF ATLANTA  LLC,1267 HWY 54 W,FAYETTEVILLE,GA,30214,770-461-1407,
305097974746,SOUTH GEORGIA RADIOLOGY ASSOCIATES LLC,2480 CLAXTON DAIRY RD,DUBLIN,GA,31021-4427,888-545-5551,
877650455512,EAST DUBLIN URGENT CARE CENTER,406 CENTRAL DRIVE,DUBLIN,GA,31027,478-275-1122,URGENT MEDICAL CARE CENTERS AND CLINICS (EXCEPT HOSPITALS)  FREESTANDING
448403619726,THERAMED HEALTH  LLC,3250 QUICK WATER LNDG NW,KENNESAW,GA,30144-4225,678-574-6941,
132906994050,PCP89491,3370 VINEVILLE AVE,MACON,GA,31204-2331,,
960706152090,PCP258565,2400 WISTERIA DR,SNELLVILLE,GA,30078-2689,,
351835405464,PCP264542,1631 PHOENIX BLVD,COLLEGE PARK,GA,30349-5545,,
391772659869,SOUTHSIDE MEDICAL CARE,6325 SHANNON PKWY,UNION CITY,GA,30291-1538,770-964-1400,
389680432258,SOUTH GEORGIA RADIOLOGY ASSOCIATES LLC,706 N PARISH AVE,ADEL,GA,31620-1511,912-660-6220,
292680733573,PCP143606,600 E OGLETHORPE HWY,HINESVILLE,GA,31313-2806,,
150216829475,PCP158711,2575 SNAPFINGER RD,DECATUR,GA,30034-2300,,
308534305003,ROCKDALE FAMILY PRACTICE  PC,2020 HONEY CREEK PKWY SE,CONERS,GA,30013-2974,770-929-0813,
931910734743,AIRPORT CLINIC INC,704 GIL HARBIN INDUSTRIAL BLVD,VALDOSTA,GA,31601-6513,229-242-9003,
577954744589,Valdosta CBOC,2841 N. Patterson Street,Valdosta,GA,31602,229-293-0132 Or 877-303-8387,VA Facility
786982191676,COOPERATIVE HEALTHCARE SERVICES  INC.,308 BEDELL AVE,WOODBINE,GA,31569-2091,,
264538122227,PCP134285,5041 DALLAS HWY BLD 1 C,POWDER SPRINGS,GA,30127-6458,,
301782567894,PEACHSTREET CLINIC,4426 AUSTELL ROAD,AUSTELL,GA,30106,678-398-5440,URGENT MEDICAL CARE CENTERS AND CLINICS (EXCEPT HOSPITALS)  FREESTANDING
674356829777,CHESTATEE REGIONAL HOSPITAL,227 MOUNTAIN DRIVE,DAHLONEGA,GA,30533,7068646136,Acute Care Hospitals
190153742318,NORTHSIDE SURGICAL PROFESSIONAL SERVICES LLC,133 PROMINENCE CT,DAWSONVILLE,GA,30534-8936,706-265-6600,
753323639504,PHYSICIANS IMMEDIATE MED,91 NORDSON OVERLOOK,DAWSONVILLE,GA,30534,706-216-6000,URGENT MEDICAL CARE CENTERS AND CLINICS (EXCEPT HOSPITALS)  FREESTANDING
216703173709,GWINNETT CLINIC LTD,2327 HWY 29,DACULA,GA,30019-2205,770-962-0054,
381386840745,COLUMBUS AMBULATORY HEALTHCARE SERVICES  INC.,616 19TH ST,COLUMBUS,GA,31901-1528,706-571-1454,
225078337701,PCP171460,7794 ELLA LANE,FAIRBURN,GA,30213,,
957306167083,DERMATOLOGY ASSOCIATES OF TALLAHASSEE PA,4233 CAMELOT XING,VALDOSTA,GA,31602-6926,229-469-4383,
366066998673,ADVANCE REHABILITATION AND CONSULTING LIMITED PARTNERSHIP,1081 NATHANS DEAN PKWY,ROCKMART,GA,30153,678-757-1899,
353575541240,COOPER LAKE URGENT CARE,4480 NORTH COOPER LAKE ROAD SOUTHEAST,SMYRNA,GA,30082,770-333-1300,URGENT MEDICAL CARE CENTERS AND CLINICS (EXCEPT HOSPITALS)  FREESTANDING
522851269281,ANKLE AND FOOT ASSOC  LLC,1088 A BERMUDA RUN,STATEBORO,GA,30458-0858,912-681-8000,
979374329857,PCP101640,183 KEYS FERRY ST,MCDONOUGH,GA,30253-3232,,
618540109553,PCP159332,5680 PEACHTREE PKWY B,PEACHTREE CORNERS,GA,30092-2857,,
975897123882,THE NEUROPSYCHOLOGY CENTER  LLC,6000 SHAKERAG HL,PEACHTREE CITY,GA,30269-6523,770-632-1088,
988145769820,ARCHBOLD MEDICAL GROUP  INC.,1323 E SHOTWELL ST,BAINBRIDGE,GA,39819-4252,229-246-6555,
578652337268,PCP347665,6262 VETERANS PKWY,COLUMBUS,GA,31909-3540,,
816746609869,CONCENTRA URGENT CARE MEDICAL CENTER - MORELAND,4223 STATE HIGHWAY 42,CONLEY,GA,30288,404-366-2900,URGENT MEDICAL CARE CENTERS AND CLINICS (EXCEPT HOSPITALS)  FREESTANDING
416011408646,PCP124357,7580 SPRINGBOX DR,FAIRBURN,GA,30213-1289,,
477726184885,PCP105463,132 STEPHENSON AVE,SAVANNAH,GA,31405-5829,,
250951325491,BONE AND JOINT INSTITUTE OF SOUTH GEORGIA  P.C.,110 PROFESSIONAL CT,JESUP,GA,31545-0044,912-427-0800,
501617442764,APOGEE MEDICAL GROUP GEORGIA,601 DALLAS HWY,VILLA RICA,GA,30180-1202,770-812-3000,
644193883970,TAYLOR REGIONAL HOSPITAL,222 PERRY HWY 104,HAWKINSVILLE,GA,31036-6748,478-987-1261,
792045491272,TAYLOR REGIONAL HOSPITAL,222 PERRY HWY,HAWKINSVILLE,GA,31036,4787830200,Acute Care Hospitals
653107149475,HOUSTON MEDICAL CENTER - HOUSTON LAKE MED STOP,2510 STATE HIGHWAY 127,KATHLEEN,GA,31047,478-988-1865,URGENT MEDICAL CARE CENTERS AND CLINICS (EXCEPT HOSPITALS)  FREESTANDING
251080696637,FLOYD HEALTHCARE MANAGEMENT INC,330 TURNER MCCALL SW BLVD,ROME,GA,30165-5631,,
570379518787,RADIATION ONCOLOGY OF COLUMBUS PC,1831 5TH AVE,COLUMBUS,GA,31904-8915,706-571-1050,
328188275954,PCP162099,232 CHEROKEE RD,THOMASTON,GA,30286-3402,,
628410716526,Austell VA CBOC,2041 Mesa Valley Way Suite 185,Austell,GA,30082,404-329-2222,VA Facility
549279379775,PCP45754,1720 MOUNT VERNON RD B,DUNWOODY,GA,30338-4269,678-580-2485,
631509129105,MILAN EYE LLC,270 WALMART WAY,DAHLONEGA,GA,30533-0824,706-867-9335,
218341317415,GEORGIA OPHTHALMOLOGISTS LLC,170 MACON AVE,JACKSON,GA,30233-2632,770-775-1234,
327881715243,JASPER MEMORIAL HOSPITAL,898 COLLEGE STREET,MONTICELLO,GA,31064,7064686411,Critical Access Hospitals
121113238211,PCP92777,13800 GA HWY 9,ALPHARETTA,GA,30004,,
264963868401,PCP166862,5653 BUFORD NE HWY,DORAVILLE,GA,30340-1200,,
101778630696,PCP228661,794 MCDONOUGH RD,JACKSON,GA,30233-1572,,
861916368381,SPALDING REGIONAL URGENT CARE AT HERON BAY,3334 STATE HIGHWAY 155,LOCUST GROVE,GA,30248,678-583-0241,URGENT MEDICAL CARE CENTERS AND CLINICS (EXCEPT HOSPITALS)  FREESTANDING
644420485689,PCP104818,100 COLLEGE AVE SE,GAINESVILLE,GA,30501-4501,,
683960758620,CHOA MULTISPECIALTY  LLC,3795 MANSELL RD,ALPHARETTA,GA,30022-8247,404-785-2000,
698814466382,SOUTH GEORGIA RADIOLOGY ASSOCIATES LLC,2411 BULL ST,SAVANNAH,GA,31401-9193,888-545-5551,
157809215777,UANDM FAMILY EYECARE,3245 LAWRENCEVILLE SUWANEE RD,SUWANEE,GA,30024-6541,678-649-2020,
940579662064,PCP78515,539 GLYNN N ST,FAYETTEVILLE,GA,30214-1108,,
448641388962,PCP123116,4735 JONESBORO RD,UNION CITY,GA,30291-1915,,
138269786362,PCP125077,769 MORROW RD,FOREST PARK,GA,30297-3240,,
321385119355,PCP154753,59 TIPTON DR,DAHLONEGA,GA,30533-1603,,
787399867106,Fulton County VA Clinic,1513 Cleveland Ave.  Building 300,East Point,GA,30344,,VA Facility
927147908812,COLUMBUS AMBULATORY HEALTHCARE SERVICES  INC.,2000 10TH AVE,COLUMBUS,GA,31901-3713,706-660-2932,
707008334984,PEDIATRICS AFTER HOURS,705 17TH STREET,COLUMBUS,GA,31901,706-571-1665,URGENT MEDICAL CARE CENTERS AND CLINICS (EXCEPT HOSPITALS)  FREESTANDING
114830596226,PCP167129,1727 MARS HILL NWRD,ACWORTH,GA,30101-8090,,
206016807450,NORTHEAST GEORGIA PHYSICIANS GROUP INC,1906 RAILROAD ST,STATHAM,GA,30666-1875,770-868-5172,
255697532273,PCP26304,3736 EXECUTIVE CTR DR,MARTINEZ,GA,30907-2360,705-364-4599,
810420451370,ACTION MEDICAL CENTER  LLC,211 BOBBY JONES EXPY,MARTINEZ,GA,30907-5253,706-364-5533,
108926883507,DOURRON OB/GYN ASSOCIATES  P.C.,2675 N DECATUR RD,DECATUR,GA,30033-6132,404-294-0472,
318511943381,SAINT JOSEPH'S/CANDLER IMMEDIATE CARE - MIDTOWN,361 COMMERCIAL DRIVE,SAVANNAH,GA,31406,912-355-6221,URGENT MEDICAL CARE CENTERS AND CLINICS (EXCEPT HOSPITALS)  FREESTANDING
658714174933,GEORGIA NEUROSURGICAL INSTITUTE  P.C,840 PINE ST,MACON,GA,31201-7525,478-743-7092,
299469366632,PCP134172,8460 HOLCOMB BRIDGE RD,ALPHARETTA,GA,30022-5317,,
357813199694,INDEPENDENT PHYSICAL THERAPY OF GA  LLC,420 WALMART WAY,DAHLONEGA,GA,30533-0818,706-482-2268,
195195747589,PCP265743,204 SENOIA RD,FAIRBURN,GA,30213-1536,,
716287208426,Atlanta Vet Center,1800 Phoenix Boulevard  Building 400  Suite 404 Box 55,Atlanta,GA,30349,404-417-5414 Or 404-417-5414,VA Facility
282244980718,WEST GEORGIA EYE CARE CENTER P.A.,2012 10TH AVE,COLUMBUS,GA,31901-1460,706-323-3491,
215884953597,PIEDMONT CARDIOLOGY OF ATLANTA  LLC,275 COLLIER RD NW,ATLANTA,GA,30309-1700,404-355-6562,
145770796378,PCP15318,1106 FURYS LN,MARTINEZ,GA,30907-8219,706-210-2875,
381516202923,JOHN L. HENAHAN  OD  POC,361 HWY 74 N,PEACHTREE CITY,GA,30269,770-487-0667,
935430542128,Carl Vinson VA Medical Center,1826 Veterans Blvd.,Dublin,GA,31021,478-272-1210,VA Facility
859532651677,VISN 7: VA Southeast Network,3700 Crestwood Parkway  NW  Suite 500,Duluth,GA,30096,678-924-5700,VA Facility
597206898746,PCP112843,3576 SHALLOWFORD RD NE,CHAMBLEE,GA,30341-2998,,
367031764372,AGA PROFESSIONAL SERVICES LLC,1260 HWY 54 W,FAYETTEVILLE,GA,30214,770-486-7000,
964738370990,PCP93416,4405 MALL BLVD,UNION CITY,GA,30291-2070,,
805343869624,PCP192058,601 BOMBAY LN,ROSWELL,GA,30076-5828,404-576-8454,
995244149098,PCP207327,4535 FLAT SHOALS PKWY,DECATUR,GA,30034-5039,,
972361319777,MED NOW URGENT CARE  LLC,2604 PEACH ORCHARD RD,AUGUSTA,GA,30906-2406,706-798-4673,
688779105884,VASCULAR MEDICINE AND SURGERY SPECIALIST OF ATLANTA L.L.C.,2675 N DECATUR RD,DECATUR,GA,30033-6138,404-299-6488,
887323180502,PCP92017,4080 MCGINNIS FERRY RD,ALPHARETTA,GA,30005-1736,,
284434701431,PCP345174,4989 PEACHTREE PKWY,PEACHTREE CORNERS,GA,30092-2589,,
477294570369,PCP50280,889 WIMPY MILL RD,DAHLONEGA,GA,30533-0490,706-864-0695,
938260314509,DR OKUM  PC,6703 SHANNON,UNION CITY,GA,30291-2073,770-964-3334,
935653177204,PCP207200,8095 ROSWELL RD,SANDY SPRINGS,GA,30350-3931,,
267050541870,PCP50605,10800 JONES BRIDGE RD A,ALPHARETTA,GA,30022-7010,678-867-0135,
873838390526,INDEPENDENT PHYSICAL THERAPY OF GA  LLC,5370 HWY 92 530,FAIRBURN,GA,30213-2296,678-666-4146,
163229566128,INDEPENDENT PHYSICAL THERAPY OF GA  LLC,130 LONG BRANCH RD,DAHLONEGA,GA,30533-7132,776-864-0200,
863899556412,PCP132998,12060 ETRIS RD,ROSWELL,GA,30075-1402,,
517866721838,DEKALB COMMUNITY SERVICE BOARD,3807 CLAIRMONT RD,CHAMBLEE,GA,30341-4911,770-457-5867,
903472534052,STARR'S MILL INTERNAL MEDICINE  LLC,1330 HWY 74,FAYETTEVILLE,GA,30215-2950,770-631-2502,
609289206530,NORTHEAST GEORGIA PHYSICIANS GROUP INC,1298 S CHESTATEE,DAHLONEGA,GA,30533-5530,706-864-3400,
117335764869,SWEET DREAMS NURSE ANESTHESIOLOGY LLC,227 MOUNTAIN DR,DAHLONEGA,GA,30533-1606,706-864-6136,
209692726875,PCP168112,8470 SENOIA RD,FAIRBURN,GA,30213-2870,,
488340653565,CLEAVER DERMATOLOGY PC,59 TIPTON DR,DAHLONEGA,GA,30533-1603,770-800-3455,
510464732810,PCP32306,2801 BUFORD HWY NE,BROOKHAVEN,GA,30329-2124,404-636-9402,
271351569126,WELLSTAR MEDICAL GROUP  LLC,2500 HOSPITAL BLVD,ROSWELL,GA,30076-4919,770-410-4366,
192516583118,PHYSICIANS SPINE AND REHAB SPECIALISTS OF GA,5730 GLENRIDGE DR,SANDY SPRINGS,GA,30328-5579,404-816-3000,
122413804869,GASTROENTEROLOGY CONSULTANTS PC,3000 HOSPITAL BLVD,ROSWELL,GA,30076-4915,770-821-6791,
964970991748,DUNWOODY URGENT CARE,1730 MOUNT VERNON ROAD,ATLANTA,GA,30338,770-353-2001,URGENT MEDICAL CARE CENTERS AND CLINICS (EXCEPT HOSPITALS)  FREESTANDING
987441626184,PCP16467,4180 OLD MILTON PKWY,ALPHARETTA,GA,30005-2408,770-754-1000,
972448524566,WELLSTAR MEDICAL GROUP  LLC,4500 HOSPITAL BLVD,ROSWELL,GA,30076-0001,770-410-4520,
702278142342,PCP165757,250 E CROSSVILLE RD,ROSWELL,GA,30075-3040,,
838550650000,PIEDMONT PROFESSIONAL SERVICES  LLC,7530 ROSWELL RD,SANDY SPRINGS,GA,30350-4837,678-732-1526,
792601898781,SMARTCARE LLC,540 E CROSSVILLE RD,ROSEWELL,GA,30075-7661,770-540-1850,
926654606846,WELLSTAR URGENT CARE - SHALLOWFORD URGENT CARE,3600 SANDY PLAINS ROAD NORTHEAST,MARIETTA,GA,30066,770-977-4547,URGENT MEDICAL CARE CENTERS AND CLINICS (EXCEPT HOSPITALS)  FREESTANDING
894793898523,FOUNDATION THERAPY CENTER-ALPHARETTA  LLC,11660 ALPHARETTA HWY,ROSWELL,GA,30076,770-673-0093,
411395688428,PCP96442,1905 WOODSTOCK RD,ROSWELL,GA,30075-5632,,
268581177724,HUG INC,75 MAGNOLIA ST,ROSWELL,GA,30075-4381,404-541-9699,
616382849312,PCP143433,800 MT VERNON HWY NE,SANDY SPRINGS,GA,30328-4295,,
429262754637,NORTHSIDE SURGICAL PROFESSIONAL SERVICES LLC,684 SIXES RD,HOLLY SPRINGS,GA,30115-8758,770-517-6636,
553973146058,WOODSTOCK FAMILY AND URGENT CARE,12926 STATE HIGHWAY 92,WOODSTOCK,GA,30188,770-771-5600,URGENT MEDICAL CARE CENTERS AND CLINICS (EXCEPT HOSPITALS)  FREESTANDING
